"locality string","country","state","county","latitude","longitude","correction status","precision","error polygon","multiple results","ID","name","basis"
NA,"united states","north carolina",NA,NA,NA,"","","","","007fb007-6bec-4226-8492-a06ac02f0ab3","shortia galacifolia","PreservedSpecimen"
NA,"united states","south carolina",NA,NA,NA,"","","","","00837767-f0ac-4ad3-a9a5-19f852a64b39","shortia galacifolia","PreservedSpecimen"
"Highlands Biological Station, Highlands","united states","north carolina","macon",NA,NA,"","","","","01248009-632b-4a8d-a103-ad02a4877be8","shortia galacifolia","PreservedSpecimen"
NA,"united states","south carolina","unspecified county",NA,NA,"","","","","017d98b4-292f-4e80-9166-d620dd46c538","shortia galacifolia","PreservedSpecimen"
NA,"united states","south carolina","oconee",NA,NA,"","","","","02045ff9-03fe-4ab4-9ae5-7d81f4eca941","shortia galacifolia","PreservedSpecimen"
NA,"united states","south carolina","pickens",NA,NA,"","","","","023a0aeb-bd03-45e1-880a-35fdaa1dc5c2","shortia galacifolia","PreservedSpecimen"
NA,"united states","north carolina",NA,NA,NA,"","","","","048907d3-06a5-4046-a035-e094b5576b6c","shortia galacifolia","PreservedSpecimen"
NA,"united states","north carolina",NA,NA,NA,"","","","","04c58b44-1534-41f3-a36c-17c99c439cce","shortia galacifolia","PreservedSpecimen"
NA,"united states","south carolina","oconee",NA,NA,"","","","","04d722c7-0af7-4497-a292-2394b2d6c258","shortia galacifolia","PreservedSpecimen"
NA,"united states","south carolina","pickens",NA,NA,"","","","","08b4930b-b4e3-423f-9b85-2f3f5b87eaf1","shortia galacifolia","PreservedSpecimen"
NA,"united states","south carolina","oconee",NA,NA,"","","","","09119127-051c-4a15-8b22-de481b7154ae","shortia galacifolia","PreservedSpecimen"
NA,"united states","north carolina","macon",NA,NA,"","","","","0b177f92-6289-4ecd-926c-cf000a673f0d","shortia galacifolia","PreservedSpecimen"
NA,"united states","south carolina","oconee",NA,NA,"","","","","0b2011b8-af76-4a53-a30e-83868880058b","shortia galacifolia","PreservedSpecimen"
NA,"united states","south carolina","oconee",NA,NA,"","","","","0b763fee-e3e6-4a57-9eab-5f8a2417d30d","shortia galacifolia","PreservedSpecimen"
NA,"united states","north carolina","macon",NA,NA,"","","","","0d6ed1ed-511c-4887-ac7e-ffdaa8cb67fb","shortia galacifolia","PreservedSpecimen"
NA,"united states","south carolina","oconee",NA,NA,"","","","","0e109173-f821-4c3c-b011-c1d19a405766","shortia galacifolia","PreservedSpecimen"
NA,"united states","south carolina","oconee",NA,NA,"","","","","0f79c282-7df3-41e2-ac5f-e2348f701b46","shortia galacifolia","PreservedSpecimen"
"The New York Botanical Garden. Plants of Biltmore, North Carolina.","united states","north carolina","buncombe",NA,NA,"","","","","0ff03b9a-6a98-46e1-8904-41407a80536b","shortia galacifolia","PreservedSpecimen"
NA,"united states","south carolina","oconee",NA,NA,"","","","","1012a444-fc97-4c13-8a6e-3682eebd61a4","shortia galacifolia","PreservedSpecimen"
NA,"united states","north carolina","mcdowell",NA,NA,"","","","","1038e691-ce6b-4241-870d-9220f6c209bd","shortia galacifolia","PreservedSpecimen"
"Cultivated New York, Nassau County, Sands Point, Creem property","united states","new york","nassau",NA,NA,"","","","","1170b4ec-4fea-408a-bf0f-16406e503ce8","shortia galacifolia","PreservedSpecimen"
NA,"united states","south carolina","oconee co.",NA,NA,"","","","","137f2a53-0652-4c99-8974-1d01ff3a9f54","shortia galacifolia","PreservedSpecimen"
"On Joe McNulty's road below Fish Hatchery on both sides of stream beginning at road. This is the first branch crossed on McNulty's road from Fish Hatchery road. Shortia comes to the road here on both sides and can be pcked from the road on the up side, and goes up and down for hundreds of yards. Mr. Townsend says at least 1/2 mi. up - has never followed it far down.","united states","north carolina","mcdowell",NA,NA,"","","","","13a83c6b-988c-4b5b-8e94-7ecbe4a98369","shortia galacifolia","PreservedSpecimen"
NA,"united states","south carolina","oconee county",NA,NA,"","","","","13f56a06-0970-4350-8f9b-d6ef4307e63c","shortia galacifolia","PreservedSpecimen"
NA,"united states","south carolina","oconee",NA,NA,"","","","","14076473-354a-4f71-b76d-d2fd2636992a","shortia galacifolia","PreservedSpecimen"
NA,"united states","south carolina","oconee county",NA,NA,"","","","","141a7d6d-09cb-4823-bb01-42f14e0103b9","shortia galacifolia","PreservedSpecimen"
NA,"united states","south carolina","oconee",NA,NA,"","","","","146e5f41-49e9-4a3c-9858-e6b3fb460244","shortia galacifolia","PreservedSpecimen"
"No locality given.","united states","south carolina",NA,NA,NA,"","","","","14740e4c-b155-477d-91e0-5d46b210cc1d","shortia galacifolia","PreservedSpecimen"
NA,"united states","south carolina","pickens",NA,NA,"","","","","15391053-7f97-495c-bcd7-7398cab1b7c5","shortia galacifolia","PreservedSpecimen"
NA,"united states","south carolina","pickens",NA,NA,"","","","","157b5f7c-1e67-4d39-9934-cddf457bb423","shortia galacifolia","PreservedSpecimen"
NA,"united states","north carolina",NA,NA,NA,"","","","","160e2ac1-452d-4238-a5b2-5dda659f1fad","shortia galacifolia","PreservedSpecimen"
NA,"united states","south carolina","pickens",NA,NA,"","","","","1629a68c-857e-47bf-a00f-69797c70377f","shortia galacifolia","PreservedSpecimen"
NA,"united states","south carolina","pickens",NA,NA,"","","","","17947776-eb9d-42e5-b3e5-633ad7c9e149","shortia galacifolia","PreservedSpecimen"
NA,"united states","south carolina","oconee",NA,NA,"","","","","18b9d374-3615-4af7-a7a4-86b2a3cf1297","shortia galacifolia","PreservedSpecimen"
NA,"united states","north carolina","mcdowell",NA,NA,"","","","","1ccd2202-3bef-460f-b28e-ac0079cfb85a","shortia galacifolia","PreservedSpecimen"
NA,"united states","south carolina","oconee",NA,NA,"","","","","1e63154b-eb5d-4b6f-b11b-3c6d4ac5bc96","shortia galacifolia","PreservedSpecimen"
NA,"united states","south carolina","oconee",NA,NA,"","","","","1e787942-d8fe-4723-a85a-0ac2e8e3aa0b","shortia galacifolia","PreservedSpecimen"
NA,"united states","tennessee","polk",NA,NA,"","","","","1eb79421-026d-4aeb-bdb5-5960e272b144","shortia galacifolia","PreservedSpecimen"
NA,"united states","south carolina","spartanburg",NA,NA,"","","","","1f3ff4cd-e7ff-4cba-97f7-6df9a736d579","shortia galacifolia","PreservedSpecimen"
"Clay County, NC","united states","north carolina","clay county",NA,NA,"","","","","1f4099d9-02e6-4c0f-8583-bd1a462281c1","shortia galacifolia","PreservedSpecimen"
NA,"united states","south carolina","pickens",NA,NA,"","","","","237e54e0-d685-4434-8bb2-ac41306e7757","shortia galacifolia","PreservedSpecimen"
NA,"united states","south carolina","oconee",NA,NA,"","","","","24134cbf-f62f-446b-ae1a-4b6d43fe59a0","shortia galacifolia","PreservedSpecimen"
NA,"united states","south carolina","oconee",NA,NA,"","","","","2483b336-417c-4867-ad97-6bcae91c93b6","shortia galacifolia","PreservedSpecimen"
NA,"united states","south carolina","oconee",NA,NA,"","","","","26c56835-d9f4-4d4f-a36c-2a7f353a2e0a","shortia galacifolia","PreservedSpecimen"
NA,"united states","north carolina",NA,NA,NA,"","","","","2834ab27-2c52-4af5-ad11-e3888d6aab10","shortia galacifolia","PreservedSpecimen"
NA,"united states","south carolina","oconee",NA,NA,"","","","","298583f2-aeed-4fb5-ae27-7054ee7c7fc8","shortia galacifolia","PreservedSpecimen"
NA,"united states","north carolina","macon",NA,NA,"","","","","29e98f98-8e0f-4b23-9bb6-9381120b9a6f","shortia galacifolia","PreservedSpecimen"
NA,"united states","north carolina",NA,NA,NA,"","","","","29fc30de-dc1c-4210-9398-e5e400dd8132","shortia galacifolia","PreservedSpecimen"
NA,"united states","south carolina","oconee",NA,NA,"","","","","2a10dbce-6c42-447b-8e7f-83a3b0298899","shortia galacifolia","PreservedSpecimen"
NA,"united states","south carolina","oconee",NA,NA,"","","","","2a26ed10-e7cd-42ec-80be-8d4c20399e0f","shortia galacifolia","PreservedSpecimen"
NA,"united states","south carolina","oconee",NA,NA,"","","","","2a4b2de8-41a0-4394-b50f-aaff29d9faff","shortia galacifolia","PreservedSpecimen"
"Devil's Fork, one mi. W of confluence with Whitewater River, Jocassee community","united states","south carolina","oconee",NA,NA,"","","","","2a4f1fcf-0d72-47cb-bf35-642be26c0ab8","shortia galacifolia","PreservedSpecimen"
NA,"united states","south carolina","oconee",NA,NA,"","","","","2af18887-b0bd-457b-a1f2-f265f7f8e7aa","shortia galacifolia","PreservedSpecimen"
NA,"united states","south carolina","pickens county",NA,NA,"","","","","2b71e7ca-7a9f-4684-baaf-b41e6dff0e52","shortia galacifolia","PreservedSpecimen"
"Reed Creek, South of Glade Mountain","united states","georgia","rabun county",NA,NA,"","","","","2bb292f8-ef49-4225-9a91-8c543e2574b0","shortia galacifolia","PreservedSpecimen"
NA,"united states","south carolina","pickens",NA,NA,"","","","","2be827d8-aebc-49b7-ae3c-1b38e9579ccc","shortia galacifolia","PreservedSpecimen"
"Keowee River.","united states","south carolina","pickens",NA,NA,"","","","","2da82216-b958-493a-a76b-1c205ad35cca","shortia galacifolia","PreservedSpecimen"
NA,"united states","north carolina","transylvania",NA,NA,"","","","","2fd9238e-ae3c-4262-a08c-2d117f664db2","shortia galacifolia","PreservedSpecimen"
NA,"united states","south carolina","pickens co.",NA,NA,"","","","","329c7a85-bceb-4cdd-bb50-78d662ad49d1","shortia galacifolia","PreservedSpecimen"
"McDowell Co., N.C. [North Carolina]","united states","north carolina","mcdowell",NA,NA,"","","","","3303fa91-340c-440c-83a2-ca2c17545107","shortia galacifolia","PreservedSpecimen"
NA,"united states","north carolina","mcdowell",NA,NA,"","","","","33da3b27-9749-41e3-9b10-7e2d9850670b","shortia galacifolia","PreservedSpecimen"
NA,"united states","virginia","amherst",NA,NA,"","","","","33e33d8f-758c-4eae-9cca-1fd23329728a","shortia galacifolia","PreservedSpecimen"
NA,"united states","south carolina","oconee county",NA,NA,"","","","","348124ea-9035-4185-bd30-6d39209d8a2a","shortia galacifolia","PreservedSpecimen"
NA,"united states","south carolina",NA,NA,NA,"","","","","35803f90-ab8d-47d1-bcd0-eae268da08d6","shortia galacifolia","PreservedSpecimen"
NA,NA,NA,NA,NA,NA,"","","","","36188ea6-3ee6-41bf-a784-7f8b4405d1a1","shortia galacifolia","PreservedSpecimen"
NA,"united states","north carolina","macon",NA,NA,"","","","","367080f8-e9ca-457b-8338-13bb4a21ee7f","shortia galacifolia","PreservedSpecimen"
NA,"united states","north carolina","transylvania",NA,NA,"","","","","37cfe931-e4e7-45c5-8303-bd71e8e19ebd","shortia galacifolia","PreservedSpecimen"
NA,"united states","south carolina","oconee",NA,NA,"","","","","38edcd63-f59d-4175-b888-a56c4580ffb8","shortia galacifolia","PreservedSpecimen"
NA,"united states","south carolina","pickens",NA,NA,"","","","","39391ad8-dced-4eca-b918-a1b502fafb38","shortia galacifolia","PreservedSpecimen"
"Bunches Creek, on mossy bank near creek just off Big Cove Road, Cherokee, N.C.","united states","north carolina","swain",NA,NA,"","","","","3be37723-9586-48e9-bfad-51d9de0f3374","shortia galacifolia","PreservedSpecimen"
NA,"united states","south carolina","oconee co.",NA,NA,"","","","","3c28d166-4416-449c-9e7d-b3a75d0c4c4d","shortia galacifolia","PreservedSpecimen"
NA,"united states","georgia","rabun",NA,NA,"","","","","3c501865-e19b-4eef-9cb5-10840f1b8fe1","shortia galacifolia","PreservedSpecimen"
NA,"united states","north carolina","transylvania",NA,NA,"","","","","3fc4c77b-bec7-44e0-aee4-cb7d2e57f215","shortia galacifolia","PreservedSpecimen"
NA,"united states","south carolina","greenville",NA,NA,"","","","","4096a0b7-9ae3-4dfa-88e4-3531555ec1b4","shortia galacifolia","PreservedSpecimen"
NA,"united states","south carolina","pickens",NA,NA,"","","","","40e6c914-815c-4482-af2b-c714a5c73c57","shortia galacifolia","PreservedSpecimen"
NA,"united states","north carolina","mcdowell",NA,NA,"","","","","43e34479-f6c8-45aa-bec9-436d2f2255ec","shortia galacifolia","PreservedSpecimen"
"Highlands Biological Station, Highlands","united states","north carolina","macon",NA,NA,"","","","","4594e346-4a9f-4f1c-b7b6-def1a2bfa86a","shortia galacifolia","PreservedSpecimen"
NA,"united states","north carolina","oconee",NA,NA,"","","","","46345f85-fdbe-4cf4-a5ec-f2991731560a","shortia galacifolia","PreservedSpecimen"
"By stream of Campsite","united states","north carolina","transylvania",NA,NA,"","","","","472cbcb9-958a-4028-ab3e-d0d813809612","shortia galacifolia","PreservedSpecimen"
"Plantae Exsiccatae Grayanae Shady banks under Rhododendron and Kalmia, by Whitewater River.","united states","south carolina","oconee county",NA,NA,"","","","","48dd212b-3634-4d45-b4df-ee128f6a1cec","shortia galacifolia","PreservedSpecimen"
NA,"united states","south carolina","oconee",NA,NA,"","","","","496dc35a-7105-44be-8c63-7b3932430500","shortia galacifolia","PreservedSpecimen"
NA,"united states","south carolina","oconee",NA,NA,"","","","","4a213c7b-e6dd-4d18-8407-fe69f1d3bc70","shortia galacifolia","PreservedSpecimen"
NA,"united states","north carolina",NA,NA,NA,"","","","","4a3bcc97-f80d-4d39-a604-d4ea7a8d61a2","shortia galacifolia","PreservedSpecimen"
NA,"united states","south carolina","pickens",NA,NA,"","","","","4a6f823c-e7e1-4a26-bdc6-7bc2f4151bad","shortia galacifolia","PreservedSpecimen"
NA,"united states","north carolina","mcdowell",NA,NA,"","","","","4a7686e0-1623-46ac-8a71-11a89ed8da41","shortia galacifolia","PreservedSpecimen"
NA,"united states","south carolina","oconee county",NA,NA,"","","","","4c5bc14e-1b96-447e-93fb-7eb479df98bf","shortia galacifolia","PreservedSpecimen"
NA,"united states","south carolina","oconee",NA,NA,"","","","","4d4a0b43-6d3c-48ab-b8cb-f62894d04463","shortia galacifolia","PreservedSpecimen"
"By branch back of old nursery on Pierson place - planted by Harbison","united states","north carolina","macon",NA,NA,"","","","","4dd2ab43-e541-49b4-994f-1a8750435b97","shortia galacifolia","PreservedSpecimen"
NA,"united states","georgia","rabun",NA,NA,"","","","","4e39ff69-27df-4a78-93a8-5fc41a82cd41","shortia galacifolia","PreservedSpecimen"
NA,"united states","north carolina","macon",NA,NA,"","","","","4e7409ae-0775-4df9-af7d-91d301258bc4","shortia galacifolia","PreservedSpecimen"
NA,NA,NA,NA,NA,NA,"","","","","4e756a72-e30a-4021-8dc8-494b2571630c","shortia galacifolia","PreservedSpecimen"
NA,"united states","north carolina","oconee",NA,NA,"","","","","4f116fd3-c09f-4cd9-ba90-3fdb8b04974c","shortia galacifolia","PreservedSpecimen"
NA,"united states","south carolina","pickens",NA,NA,"","","","","4ff1280b-cdca-4aa6-9ae1-58ed00e0703a","shortia galacifolia","PreservedSpecimen"
"Locality Not Recorded","united states","north carolina",NA,NA,NA,"","","","","5251432d-d76e-41ec-aeda-8bff1197607f","shortia galacifolia","PreservedSpecimen"
NA,"united states","south carolina","oconee",NA,NA,"","","","","529e43be-03a9-476f-8bb3-5c775a1ec576","shortia galacifolia","PreservedSpecimen"
NA,"united states","south carolina","oconee",NA,NA,"","","","","5313a2ed-0213-4536-aefb-2bb4443fe090","shortia galacifolia","PreservedSpecimen"
"Found on the right bank of Toni's Creek about 200 yds. up Toni's Creek from Toni's Creek road crossing about .3 mile from Highway 221, 5 miles north of Marion, McDowell Co., N.C.","united states","north carolina","mcdowell",NA,NA,"","","","","531454e2-5d1a-4c1d-9f74-959682502582","shortia galacifolia","PreservedSpecimen"
NA,"united states","north carolina","buncombe",NA,NA,"","","","","5315ad1d-6a41-45b8-8cee-431873071738","shortia galacifolia","PreservedSpecimen"
NA,"united states","south carolina","oconee",NA,NA,"","","","","54cc18af-7dec-4de0-a5c4-b393312dace4","shortia galacifolia","PreservedSpecimen"
"Locality Not Recorded","united states","north carolina","mcdowell county",NA,NA,"","","","","55030870-6d92-41f4-9a2e-7e0b41de876f","shortia galacifolia","PreservedSpecimen"
NA,"united states","south carolina","pickens",NA,NA,"","","","","55509a3b-af4a-467f-8843-ab4a1d5eaa68","shortia galacifolia","PreservedSpecimen"
NA,"united states","south carolina","oconee",NA,NA,"","","","","57cb1910-94b3-4447-b6f4-78869d9f7576","shortia galacifolia","PreservedSpecimen"
NA,"united states","south carolina","oconee county",NA,NA,"","","","","581d8944-866a-4893-8b2a-4809c0089868","shortia galacifolia","PreservedSpecimen"
NA,"united states","north carolina","transylvania",NA,NA,"","","","","594feb4c-613a-4859-95e8-e8f6076955bb","shortia galacifolia","PreservedSpecimen"
NA,"united states","north carolina","macon",NA,NA,"","","","","599fe170-f87a-445b-a830-342148232309","shortia galacifolia","PreservedSpecimen"
NA,"united states","south carolina","oconee",NA,NA,"","","","","5a1c903f-389f-40a0-8172-63625372dea7","shortia galacifolia","PreservedSpecimen"
NA,"united states","south carolina","oconee",NA,NA,"","","","","5a6113a3-4acf-4a54-91d7-fa4736b70127","shortia galacifolia","PreservedSpecimen"
NA,"united states","north carolina",NA,NA,NA,"","","","","5a7d32b5-4d55-463b-a9cd-6b909057b145","shortia galacifolia","PreservedSpecimen"
NA,"united states","south carolina","oconee",NA,NA,"","","","","5b14705d-f0be-40cc-9581-1c209228ff25","shortia galacifolia","PreservedSpecimen"
NA,"united states","north carolina","transylvania",NA,NA,"","","","","5baaaaed-3678-4e91-8c16-e44fcbde17c0","shortia galacifolia","PreservedSpecimen"
"Beaerwallow Creek near Highlands","united states","north carolina","macon",NA,NA,"","","","","5dbd9d7f-054e-4ecb-9346-1e5d8287007b","shortia galacifolia","PreservedSpecimen"
NA,"united states","south carolina","oconee",NA,NA,"","","","","5e25f73d-c424-4705-b1e3-9d043c616392","shortia galacifolia","PreservedSpecimen"
NA,"united states","virginia",NA,NA,NA,"","","","","5e3b763d-c77a-4562-a009-3e4c857a08a9","shortia galacifolia","PreservedSpecimen"
NA,"united states","south carolina","oconee",NA,NA,"","","","","60781c16-5d8e-43e8-bf0e-1143fd09c487","shortia galacifolia","PreservedSpecimen"
NA,"united states","south carolina","oconee",NA,NA,"","","","","60e10255-81b8-45c5-829c-f39141cee5cb","shortia galacifolia","PreservedSpecimen"
NA,"united states","south carolina","oconee",NA,NA,"","","","","615a8b11-bd33-48bd-a5d6-06bd048e77fb","shortia galacifolia","PreservedSpecimen"
NA,"united states","north carolina","orange",NA,NA,"","","","","61af2552-1eb3-41b6-8498-f72a57476536","shortia galacifolia","PreservedSpecimen"
NA,"united states","south carolina","pickens county",NA,NA,"","","","","63ae0123-a1f2-4cbe-ace0-0195c6d122c1","shortia galacifolia","PreservedSpecimen"
"White Water Valley","united states","south carolina","oconee",NA,NA,"","","","","63bcb3c9-40d3-408d-a6e8-0b657e9a8af0","sherwoodia galacifolia","PreservedSpecimen"
"Found by the first stream (small branch) on road to Joe McNulty's from Fish Hatchery road. About 50 yards upstream and going on as far as we went in scattered patches (about 200 yards) and accordingly to Mr. Townsend at least 1/2 mi. farther up.","united states","north carolina","mcdowell",NA,NA,"","","","","64166fdb-a66d-4d32-8dcb-d0bb8f5d80a0","shortia galacifolia","PreservedSpecimen"
NA,"united states","south carolina","oconee",NA,NA,"","","","","6419138b-3887-4294-8a88-dfee941cc9b6","shortia galacifolia","PreservedSpecimen"
NA,"united states","south carolina","oconee",NA,NA,"","","","","663d5ac0-28bd-45f0-ba6c-49ec6fc1d99c","shortia galacifolia","PreservedSpecimen"
NA,"united states","south carolina","oconee county",NA,NA,"","","","","667c7442-098f-4719-b481-7c44f13980f1","shortia galacifolia","PreservedSpecimen"
NA,"united states","south carolina","oconee",NA,NA,"","","","","67c4774a-d577-4352-aa61-7930e5d0474e","shortia galacifolia","PreservedSpecimen"
NA,"united states","north carolina","macon",NA,NA,"","","","","67edaf47-13ef-4d8c-88e6-9ef3e8fdc915","shortia galacifolia","PreservedSpecimen"
NA,"united states","south carolina","pickens",NA,NA,"","","","","693b03e0-2bc6-48b3-98d3-2bd73afd2d11","shortia galacifolia","PreservedSpecimen"
NA,"united states","georgia","rabun",NA,NA,"","","","","6953993c-19f0-48c7-a2e6-fd82ff9b05ca","shortia galacifolia","PreservedSpecimen"
NA,"united states","south carolina","oconee",NA,NA,"","","","","6a8adfef-d0d8-47f2-ac46-327dea9e89a5","shortia galacifolia","PreservedSpecimen"
"Near Asheville, Buncombe County, North Carolina.","united states","north carolina","buncombe",NA,NA,"","","","","6b0e6cfb-393a-4f05-afaf-41efe863b350","shortia galacifolia","PreservedSpecimen"
"Swannanoa River","united states","north carolina","buncombe",NA,NA,"","","","","6b811382-eea5-4044-8902-5a3f45de9615","sherwoodia galacifolia","PreservedSpecimen"
NA,"united states","north carolina","mcdowell",NA,NA,"","","","","6c285169-9629-4471-a2e8-88b4d31bf830","shortia galacifolia","PreservedSpecimen"
NA,"united states","south carolina","oconee",NA,NA,"","","","","6db3b417-392a-4519-8a07-61d8f9c347d0","shortia galacifolia","PreservedSpecimen"
NA,"united states","north carolina","mcdowell",NA,NA,"","","","","701c3174-dc07-4fc5-962f-042d87aa0f3d","shortia galacifolia","PreservedSpecimen"
NA,"united states","south carolina","spartanburg",NA,NA,"","","","","7111891d-78ec-44f0-a5e2-ba40505fc8fc","shortia galacifolia","PreservedSpecimen"
NA,"united states","south carolina","oconee county",NA,NA,"","","","","73787b56-573e-4a69-8e2b-1d832811d67d","shortia galacifolia","PreservedSpecimen"
NA,"united states","south carolina","oconee",NA,NA,"","","","","75650e3a-adae-469d-a5a9-66581c65b190","shortia galacifolia","PreservedSpecimen"
NA,"united states","south carolina","oconee",NA,NA,"","","","","75aca415-770c-4aaf-a7a8-38449117a039","shortia galacifolia","PreservedSpecimen"
NA,"united states","south carolina","oconee",NA,NA,"","","","","764b4990-c31b-4d83-8e3e-210f556de931","shortia galacifolia","PreservedSpecimen"
NA,"united states","south carolina","pickens county",NA,NA,"","","","","77a0c371-6005-4ffa-a465-e266433ec6eb","shortia galacifolia","PreservedSpecimen"
"Found at the Fish Hatchery Branch about 1 1/2 mi. above Hatchery. It is very abundant on both banks for about 1/2 mi. and sometimes solid for 20x12 ft. To be sure to find this go to Fish Hatchery ang go up F.H. Branch (creek) for perhaps 1/2 mile and come to a valley pasture through which the branch runs. A saw mill was located here. There is now a pile of saw dust. Where the branch enters the open pasture from the woods, the Shortia begins and as far up as we went, about 1/4 mi., was in great abundance.","united states","north carolina","mcdowell",NA,NA,"","","","","78273178-e200-49bc-ad38-1d2c69a4d98c","shortia galacifolia","PreservedSpecimen"
NA,"united states","north carolina","mcdowell",NA,NA,"","","","","7848e919-5cce-454a-9434-4ebcfd142588","shortia galacifolia","PreservedSpecimen"
NA,"united states","tennessee","polk",NA,NA,"","","","","7996be2a-5d2b-4c3a-98b1-feea174b4eba","shortia galacifolia","PreservedSpecimen"
NA,"united states","south carolina","oconee",NA,NA,"","","","","79c3c84f-728e-4824-9aac-be974151726e","shortia galacifolia","PreservedSpecimen"
NA,"united states","north carolina","transylvania",NA,NA,"","","","","7a3ea93e-4f2d-4569-ac14-2cf5a08fdb41","shortia galacifolia","PreservedSpecimen"
"Transylvania County, NC","united states","north carolina","transylvania county",NA,NA,"","","","","7a471850-2f7d-417b-971c-bb64d6569fa1","shortia galacifolia","PreservedSpecimen"
NA,"united states","south carolina","oconee",NA,NA,"","","","","7a6e81b5-674b-4ac5-b842-087f3609653f","shortia galacifolia","PreservedSpecimen"
NA,NA,NA,NA,NA,NA,"","","","","7abbe27e-dce9-4399-abf2-b35280315168","shortia galacifolia","PreservedSpecimen"
NA,"united states","south carolina","oconee",NA,NA,"","","","","7b8dd424-3f89-4e39-a1aa-b82adea8a34e","shortia galacifolia","PreservedSpecimen"
NA,"united states","virginia","amherst",NA,NA,"","","","","7c2c578b-0e0c-4a96-b0f9-f18521274b97","shortia galacifolia","PreservedSpecimen"
"Joyce Kilmer Memorial Forest","united states","north carolina","graham county",NA,NA,"","","","","7cd61c5f-38ce-4cd7-8070-3e02a78b88ce","shortia galacifolia","PreservedSpecimen"
NA,"united states","north carolina","mcdowell",NA,NA,"","","","","7d5843d8-47ec-437f-953c-75a7af356f6b","shortia galacifolia","PreservedSpecimen"
NA,"united states","north carolina","mcdowell",NA,NA,"","","","","7d6859fc-c336-4f80-b688-4a935d14bb0c","shortia galacifolia","PreservedSpecimen"
NA,"united states","south carolina","pickens",NA,NA,"","","","","7d994ca0-9b42-490e-b1af-3a717f555465","shortia galacifolia","PreservedSpecimen"
NA,"united states","south carolina","oconee",NA,NA,"","","","","7ef95faa-a92d-442d-a142-188b7718ae3c","shortia galacifolia","PreservedSpecimen"
NA,"united states","south carolina","oconee county",NA,NA,"","","","","7f33b24e-15f0-487d-b795-b25f9c086b1b","shortia galacifolia","PreservedSpecimen"
NA,"united states","north carolina","macon",NA,NA,"","","","","7ffce35f-e8e3-410f-b173-2797d8eb812a","shortia galacifolia","PreservedSpecimen"
NA,"united states","south carolina","oconee county",NA,NA,"","","","","80b6ce1c-2e41-4c02-b48b-572c3800a435","shortia galacifolia","PreservedSpecimen"
NA,"united states","south carolina","oconee",NA,NA,"","","","","813acad0-11a8-4f61-855e-3427a85c8ac3","shortia galacifolia","PreservedSpecimen"
NA,"united states","south carolina","oconee",NA,NA,"","","","","823e0aa0-12a2-4ec8-93ff-8203c4ba426e","shortia galacifolia","PreservedSpecimen"
"Texas; Texas Jim Hogg Co. Along S side of rd TXhwy 285, 0.5 mi E of FM 1017 ca 1.5 mi E of Hebbronville. Across from was","united states",NA,NA,NA,NA,"","","","","8500b6e3-cf11-4802-9926-a3b70d1ba162","shortia galacifolia","PreservedSpecimen"
"Fuller Tract, upland woods to ravines.","united states","kentucky","powell",NA,NA,"","","","","850a26de-d2b8-4408-af1a-e0dfb391449e","shortia galacifolia","PreservedSpecimen"
NA,"united states","north carolina","transylvania",NA,NA,"","","","","852e1de9-cf3f-4d43-b00e-afa6730d039a","shortia galacifolia","PreservedSpecimen"
NA,"united states","virginia","amherst",NA,NA,"","","","","85cb8b91-e886-4c43-8b74-455cfa7cf4a8","shortia galacifolia","PreservedSpecimen"
NA,"united states","south carolina","oconee",NA,NA,"","","","","869b3cee-418c-4c8d-9b8d-d58831537e38","shortia galacifolia","PreservedSpecimen"
NA,"united states","south carolina","oconee",NA,NA,"","","","","885760c7-bd21-4314-86c7-24eb451529c9","shortia galacifolia","PreservedSpecimen"
NA,"united states","north carolina","jackson",NA,NA,"","","","","893421c5-2cd4-47ad-be3c-b07d5110a1a4","shortia galacifolia","PreservedSpecimen"
NA,"united states","north carolina","mcdowell",NA,NA,"","","","","8a4bb700-70c8-4691-abc3-78cc5edf6962","shortia galacifolia","PreservedSpecimen"
"Reed Creek, South of Glade Mountain","united states","georgia","rabun county",NA,NA,"","","","","8ac23160-b944-48a5-8873-efdbe248b1f7","shortia galacifolia","PreservedSpecimen"
NA,"united states","south carolina","oconee",NA,NA,"","","","","8ae3c624-b9fd-4ca4-ba6a-eeb1ac289fc6","shortia galacifolia","PreservedSpecimen"
NA,"united states","south carolina","oconee",NA,NA,"","","","","8af47612-a215-4e09-b2bd-f25b013d2b67","shortia galacifolia","PreservedSpecimen"
"home of M. N. Ross, Arden.","united states","north carolina","buncombe",NA,NA,"","","","","8b147068-b232-442c-8b7e-1b0235e53fc2","shortia galacifolia","PreservedSpecimen"
NA,"united states","north carolina","transylvania co.",NA,NA,"","","","","8bab431c-1383-4828-9044-f2612e49944b","shortia galacifolia","PreservedSpecimen"
NA,"united states","south carolina","oconee",NA,NA,"","","","","8d8e7a1f-ca83-43dd-ba21-f1ac6653e494","shortia galacifolia","PreservedSpecimen"
NA,"united states","south carolina","oconee",NA,NA,"","","","","8f72692a-5982-4656-ae8f-6f673031af7e","shortia galacifolia","PreservedSpecimen"
NA,"united states","south carolina","oconee county",NA,NA,"","","","","8fce872d-e65c-42dc-88c1-acfe7fbdf8f2","shortia galacifolia","PreservedSpecimen"
NA,"united states","south carolina","pickens",NA,NA,"","","","","90127b54-a4c2-4d68-8564-8b6ea14069f7","shortia galacifolia","PreservedSpecimen"
NA,"united states","north carolina","macon",NA,NA,"","","","","90a2952e-8d41-4232-beaf-7e6b27d9dbc0","shortia galacifolia","PreservedSpecimen"
NA,"united states","south carolina","oconee",NA,NA,"","","","","914cba15-fdf4-4e44-91ca-d549521d9925","shortia galacifolia","PreservedSpecimen"
NA,"united states","north carolina",NA,NA,NA,"","","","","91675b88-0866-4aa9-871e-d8aa867cf109","shortia galacifolia","PreservedSpecimen"
NA,"united states","south carolina","pickens county",NA,NA,"","","","","91875186-60a9-4749-aee3-2300dde5550f","shortia galacifolia","PreservedSpecimen"
NA,"united states","south carolina","oconee county",NA,NA,"","","","","91a54e51-536d-465e-bf24-59cafd616dbd","shortia galacifolia","PreservedSpecimen"
NA,"united states","south carolina","oconee",NA,NA,"","","","","91be2c2f-dfc7-4708-a63f-5e2bbd6b65ed","shortia galacifolia","PreservedSpecimen"
NA,"united states","north carolina","macon",NA,NA,"","","","","9368e88b-4346-4783-afe5-d4c7db785be4","shortia galacifolia","PreservedSpecimen"
NA,"united states","south carolina","oconee",NA,NA,"","","","","93e767f7-6781-4244-893b-f5eab82d18ac","shortia galacifolia","PreservedSpecimen"
NA,"united states","south carolina","oconee",NA,NA,"","","","","97681933-522e-4bb3-822d-707a7a9dc343","shortia galacifolia","PreservedSpecimen"
NA,"united states","south carolina","oconee / pickens",NA,NA,"","","","","9aa85968-601a-42fd-827e-649cf0136ca8","shortia galacifolia","PreservedSpecimen"
NA,"united states","south carolina","oconee",NA,NA,"","","","","9b5be39e-e18f-4ef5-ac01-44474ff361e6","shortia galacifolia","PreservedSpecimen"
NA,"united states",NA,NA,NA,NA,"","","","","9cce79db-e572-40c2-a810-b0d8b83619bf","shortia galacifolia","PreservedSpecimen"
NA,"united states","south carolina","oconee",NA,NA,"","","","","9e05dabe-fd1e-4684-a5a2-a86fbc672ec8","shortia galacifolia","PreservedSpecimen"
"John's Creek/Fish Hatchery","united states","north carolina","mcdowell",NA,NA,"","","","","9ffe962b-fc33-4894-bf6d-586b3b2b7e1b","shortia galacifolia","PreservedSpecimen"
NA,NA,NA,NA,NA,NA,"","","","","a0857b66-046d-42c7-a20b-60dcdfa40a46","shortia galacifolia","PreservedSpecimen"
NA,"united states","north carolina",NA,NA,NA,"","","","","a3478e4d-01c6-42b2-9033-4f5565a8cf3b","shortia galacifolia","PreservedSpecimen"
NA,"united states","south carolina","oconee",NA,NA,"","","","","a4b3a412-dc98-4754-86b2-e6231d29d8bc","shortia galacifolia","PreservedSpecimen"
NA,"united states","georgia","rabun",NA,NA,"","","","","a4c440c6-73a9-4ec0-aa71-133f9c1fa729","shortia galacifolia","PreservedSpecimen"
NA,"united states","north carolina","transylvania",NA,NA,"","","","","a4e93f5f-f62a-468e-acc5-68045d9e8663","shortia galacifolia","PreservedSpecimen"
NA,"united states","north carolina","transylvania",NA,NA,"","","","","a4ea11a1-6a03-4b32-adf5-16cbe375785a","shortia galacifolia","PreservedSpecimen"
NA,"united states","north carolina","macon",NA,NA,"","","","","a6fc1cfb-3efb-4fc3-b09c-e79e0c970420","shortia galacifolia","PreservedSpecimen"
NA,"united states","south carolina","oconee",NA,NA,"","","","","a7552a3b-5b3f-4611-9b82-e627c8b92c51","shortia galacifolia","PreservedSpecimen"
NA,"united states","south carolina","oconee county",NA,NA,"","","","","a846928a-7743-449b-9397-f0f2e4a8bec1","shortia galacifolia","PreservedSpecimen"
NA,"united states","south carolina","oconee / pickens",NA,NA,"","","","","aa223326-7a40-4b39-8e2f-0403e2da97aa","shortia galacifolia","PreservedSpecimen"
NA,"united states","south carolina","oconee",NA,NA,"","","","","aa2d1d12-65c9-4cc1-8f1a-2549a61a20b0","shortia galacifolia","PreservedSpecimen"
NA,"united states","north carolina","transylvania",NA,NA,"","","","","aa818703-106a-4ef5-b18c-2f30f25e923a","shortia galacifolia","PreservedSpecimen"
NA,"united states","south carolina","oconee co.",NA,NA,"","","","","abfaeb2b-686e-4c87-a740-f052640d53ec","shortia galacifolia","PreservedSpecimen"
NA,"united states","south carolina","unspecified county",NA,NA,"","","","","ae8f17b5-b8b7-4eac-a930-0bf45e693930","shortia galacifolia","PreservedSpecimen"
NA,"united states","north carolina","jackson",NA,NA,"","","","","aec61861-74e0-4e96-9336-7c8edeee2d9f","shortia galacifolia","PreservedSpecimen"
NA,"united states","south carolina","oconee",NA,NA,"","","","","afe21f4c-4012-4861-bd07-81a0a608731a","shortia galacifolia","PreservedSpecimen"
NA,"united states","south carolina","oconee",NA,NA,"","","","","b0136508-eff5-448a-a8ae-a582396a6bfc","shortia galacifolia","PreservedSpecimen"
NA,"united states","south carolina","oconee",NA,NA,"","","","","b0fac61b-b735-4e37-ab90-3489bc3a2c04","shortia galacifolia","PreservedSpecimen"
"Home of M. N. Ross of Arden, NC.","united states","north carolina","buncombe",NA,NA,"","","","","b30404f1-518a-4032-a558-1310d078033d","shortia galacifolia","PreservedSpecimen"
NA,"united states","south carolina","oconee",NA,NA,"","","","","b5b7ef91-2e5e-4285-a162-fe4ae83e39d7","shortia galacifolia","PreservedSpecimen"
"McDowell County, North Carolina, U.S.A.","united states","north carolina","mcdowell",NA,NA,"","","","","b6d8521a-0ad5-43ee-8936-21c0abd2f231","shortia galacifolia","PreservedSpecimen"
NA,"united states","north carolina",NA,NA,NA,"","","","","b6ec00e5-a9d9-42a9-bc7b-52f444b08876","shortia galacifolia","PreservedSpecimen"
NA,"united states","south carolina","oconee county",NA,NA,"","","","","b6f9d0fd-7661-4a44-b931-1977bd46afe0","shortia galacifolia","PreservedSpecimen"
"Wilmington","united states","delaware","new castle",NA,NA,"","","","","b7595e51-bcbf-4bf9-9a43-36c7c5f6a8cf","shortia galacifolia","PreservedSpecimen"
"from garden of Wm. A. Knight, Biltmore Forest","united states","north carolina","buncombe",NA,NA,"","","","","b79d9198-050b-4570-b05e-19ee2484f4e5","shortia galacifolia","PreservedSpecimen"
NA,"united states","tennessee","monroe",NA,NA,"","","","","b90dbd61-937f-403b-9742-33f3d8818f24","shortia galacifolia","PreservedSpecimen"
NA,"united states","south carolina","oconee",NA,NA,"","","","","b922e6fb-9cee-4fc8-bf29-54c40442cb81","shortia galacifolia","PreservedSpecimen"
NA,"united states","south carolina","oconee",NA,NA,"","","","","b9e7b119-8b0e-4278-879a-e951e8b34c2f","shortia galacifolia","PreservedSpecimen"
NA,"united states","washington, d.c.",NA,NA,NA,"","","","","ba28bab8-b35d-4da4-b4a4-28ec96dd73dd","shortia galacifolia","PreservedSpecimen"
NA,"united states","north carolina","mcdowell",NA,NA,"","","","","ba681459-572c-42db-b5cc-3a60ffd871e4","shortia galacifolia","PreservedSpecimen"
NA,"united states","south carolina","pickens",NA,NA,"","","","","bb706a86-5836-4fba-b0dd-3cac9fb33cde","shortia galacifolia","PreservedSpecimen"
"Highland Nursery at Pineola, N.C.","united states","north carolina","avery",NA,NA,"","","","","bb75d848-80a3-4d21-ad73-2cb200e0a622","shortia galacifolia","PreservedSpecimen"
"Toms Creek","united states","north carolina","mcdowell county",NA,NA,"","","","","bbe819b8-6958-4bc0-808c-d93b766ee35b","shortia galacifolia","PreservedSpecimen"
NA,"united states","south carolina","oconee",NA,NA,"","","","","bc2cd2ed-bba1-4b55-9d43-17c772dae1d2","shortia galacifolia","PreservedSpecimen"
NA,"united states","south carolina","oconee",NA,NA,"","","","","bc676c73-4a86-444d-beab-ea24e685b84f","shortia galacifolia","PreservedSpecimen"
NA,"united states","south carolina","oconee",NA,NA,"","","","","bc77168b-fa7d-4ad9-a02d-1028ac7c509e","shortia galacifolia","PreservedSpecimen"
NA,"united states","south carolina","oconee",NA,NA,"","","","","bd81135d-a7e7-4f37-b4bc-d9139fc6005c","shortia galacifolia","PreservedSpecimen"
NA,"united states","south carolina","pickens county",NA,NA,"","","","","bde182f7-bfc8-4e9e-94c2-9197673dac5e","shortia galacifolia","PreservedSpecimen"
NA,NA,NA,NA,NA,NA,"","","","","bf6e8a98-5dd0-48e6-b89a-965ef8675cba","shortia galacifolia","PreservedSpecimen"
"Sapphire","united states","north carolina","transylvania county",NA,NA,"","","","","c092b335-3dcd-4ec7-8a67-b3e04e856c27","shortia galacifolia","PreservedSpecimen"
NA,"united states","south carolina","oconee county",NA,NA,"","","","","c10c1b6d-09e6-4c49-9b35-6116881e2e05","shortia galacifolia","PreservedSpecimen"
NA,"united states","south carolina","oconee",NA,NA,"","","","","c15c8c32-3a1b-44bb-ba87-a0ef0ace7a32","shortia galacifolia","PreservedSpecimen"
NA,"united states","north carolina","oconee",NA,NA,"","","","","c1e8e9be-7699-4e8d-be07-a318ee838b44","shortia galacifolia","PreservedSpecimen"
NA,"united states","north carolina","mcdowell",NA,NA,"","","","","c21d9997-3a7d-4963-8db8-df12287ab14d","shortia galacifolia","PreservedSpecimen"
NA,"united states","south carolina","oconee",NA,NA,"","","","","c3113876-6efc-4d03-87c5-ffbe2903991b","shortia galacifolia","PreservedSpecimen"
"Transylvania County, NC","united states","north carolina","transylvania county",NA,NA,"","","","","c395f348-cdec-4e14-962c-7c4436a8281f","shortia galacifolia","PreservedSpecimen"
NA,"united states","south carolina","oconee",NA,NA,"","","","","c47837b3-bbe6-4636-be90-afb87d970686","shortia galacifolia","PreservedSpecimen"
NA,"united states","south carolina","oconee",NA,NA,"","","","","c730f798-aea5-4841-be07-9d76a5a5b344","shortia galacifolia","PreservedSpecimen"
NA,"united states","tennessee","mcminn",NA,NA,"","","","","c77c8b2a-7591-46b2-9320-655653670082","shortia galacifolia","PreservedSpecimen"
NA,NA,NA,NA,NA,NA,"","","","","c7ae8871-8801-416b-9b80-213fa2612745","shortia galacifolia","PreservedSpecimen"
NA,"united states","south carolina","oconee co.",NA,NA,"","","","","c7fee786-f8a8-4bca-b5c1-68a8cd6eb9aa","shortia galacifolia","PreservedSpecimen"
NA,"united states","south carolina","oconee",NA,NA,"","","","","c8b94c08-e400-47e0-886d-b8ab868f4ff3","shortia galacifolia","PreservedSpecimen"
NA,"united states","south carolina","oconee",NA,NA,"","","","","c8cc088b-81b8-4718-8fd7-bc5c9666af18","shortia galacifolia","PreservedSpecimen"
NA,"united states","south carolina","oconee",NA,NA,"","","","","ca806847-38ec-454d-aada-a5fc713d31f2","shortia galacifolia","PreservedSpecimen"
NA,"united states","south carolina","oconee",NA,NA,"","","","","cad127f4-df7a-4351-8d51-ebf658a838d7","shortia galacifolia","PreservedSpecimen"
NA,"united states","south carolina","oconee",NA,NA,"","","","","caf7cebf-2611-4299-a4d9-d122606e78c8","shortia galacifolia","PreservedSpecimen"
NA,"united states","south carolina","oconee",NA,NA,"","","","","cb7536ff-e30a-4438-97a0-bbcad7e6fe1c","shortia galacifolia","PreservedSpecimen"
NA,"united states","south carolina","oconee",NA,NA,"","","","","cd5eb7f9-12d5-4904-b56c-b37d6fd81e14","shortia galacifolia","PreservedSpecimen"
NA,"united states","south carolina","oconee",NA,NA,"","","","","cd742ae0-4453-4ea7-8b58-0cbfcafe17e8","shortia galacifolia","PreservedSpecimen"
NA,"united states","north carolina","mcdowell",NA,NA,"","","","","cde20bfb-f8cd-444f-98a2-c437c2083f78","shortia galacifolia","PreservedSpecimen"
NA,NA,NA,NA,NA,NA,"","","","","cee62206-bbf1-4a51-bf7d-0f43fd009fa7","shortia galacifolia","PreservedSpecimen"
NA,"united states","south carolina","oconee",NA,NA,"","","","","cf00f8a7-035b-442b-83f1-31d85e31969c","shortia galacifolia","PreservedSpecimen"
NA,"united states","north carolina","mcdowell",NA,NA,"","","","","cfa42779-13b8-4d7c-a32c-2bc2dbe2484a","shortia galacifolia","PreservedSpecimen"
"Near Toxaway, N.C. 16 miles from the highway. Sent us by R.P. Ashworth. Collected by Jack Dendy and D.S. Trammele and first transplanted to Henderson, N.C.","united states","north carolina",NA,NA,NA,"","","","","d2f09681-1dd1-4ca9-b0ce-ef3d2525154d","shortia galacifolia","PreservedSpecimen"
NA,"united states","south carolina","pickens",NA,NA,"","","","","d3625a0b-9d1e-4537-9a77-662f3993b170","shortia galacifolia","PreservedSpecimen"
NA,"united states","south carolina","oconee",NA,NA,"","","","","d562b460-2124-41f4-87a4-24f844bb7a64","shortia galacifolia","PreservedSpecimen"
NA,"united states","south carolina",NA,NA,NA,"","","","","d7a68a12-f6b8-4ceb-9ef4-a101f671a0ac","shortia galacifolia","PreservedSpecimen"
NA,"united states","south carolina","oconee",NA,NA,"","","","","d91a7106-2e15-47f0-93db-671e3d0f0404","shortia galacifolia","PreservedSpecimen"
NA,"united states","north carolina","transylvania",NA,NA,"","","","","da7f6a54-8d35-4a3d-9e8f-7eddd966d651","shortia galacifolia","PreservedSpecimen"
NA,"united states","north carolina","buncombe",NA,NA,"","","","","dad74090-bed2-43eb-8823-23589ad58dab","shortia galacifolia","PreservedSpecimen"
NA,"united states","south carolina","oconee",NA,NA,"","","","","db51eb87-40be-4651-974e-6e5bc71eeb95","shortia galacifolia","PreservedSpecimen"
NA,"united states","south carolina","greenville",NA,NA,"","","","","db56e016-dd4c-4cef-8fb2-8ad8bbca1099","shortia galacifolia","PreservedSpecimen"
"Plentiful along stream (above railway) that runs under C. C. & O. Ry. track just across from Joe McNulty's house. This is farther down same stream as no. 3 collection and probably occurs all the way between these stations.","united states","north carolina","mcdowell",NA,NA,"","","","","dbae0f76-7566-43e8-8790-fefa67f6b451","shortia galacifolia","PreservedSpecimen"
NA,"united states","south carolina","oconee",NA,NA,"","","","","dbb07b87-97e6-4014-a19f-ae8ae10b5a5a","shortia galacifolia","PreservedSpecimen"
"San Diego","united states","california","san diego",NA,NA,"","","","","dc9961a4-6ae4-4bff-9952-19dea4583fad","shortia galacifolia","PreservedSpecimen"
NA,"united states","virginia","patrick",NA,NA,"","","","","dcb0c23b-2d0b-47b6-b9b7-c0c59fb45a74","shortia galacifolia","PreservedSpecimen"
NA,"united states","south carolina","oconee county",NA,NA,"","","","","dd0656ad-1e7e-4b8f-bfa6-8544223b3ef3","shortia galacifolia","PreservedSpecimen"
NA,"united states","north carolina",NA,NA,NA,"","","","","de6ffa2f-ad08-4907-b9ae-f01bd5dc4c0e","shortia galacifolia","PreservedSpecimen"
NA,"united states","south carolina","oconee",NA,NA,"","","","","e01f9555-d36c-470b-8f64-847b00dacf84","shortia galacifolia","PreservedSpecimen"
NA,"united states","south carolina","oconee",NA,NA,"","","","","e2c04175-7e2a-481e-aa5d-c321d406c99b","shortia galacifolia","PreservedSpecimen"
NA,"united states","south carolina","oconee",NA,NA,"","","","","e31d039a-b94f-406a-a30c-5f1ed5f30957","shortia galacifolia","PreservedSpecimen"
"Cove near Horsepasture River D P Co. Tract","united states","north carolina","macon",NA,NA,"","","","","e334fece-2e45-45e1-9a22-bc5a7273653f","shortia galacifolia","PreservedSpecimen"
NA,"united states","north carolina","mcdowell",NA,NA,"","","","","e3cd0c17-829c-45a0-bc0f-3bce48f73127","shortia galacifolia","PreservedSpecimen"
NA,"united states","south carolina",NA,NA,NA,"","","","","e49ba1be-9b0e-412b-86f0-d7b1f89faa31","shortia galacifolia","PreservedSpecimen"
NA,"united states","south carolina","oconee county",NA,NA,"","","","","e4aec98d-dd45-466b-8b7d-b8e623831788","shortia galacifolia","PreservedSpecimen"
NA,"united states","north carolina","transylvania",NA,NA,"","","","","e5c4ac0e-45ed-47a7-8c1c-5ad5978abaaf","shortia galacifolia","PreservedSpecimen"
NA,"united states","north carolina",NA,NA,NA,"","","","","e5eac295-810e-4458-b034-db87d2558a3e","shortia galacifolia","PreservedSpecimen"
NA,"united states","north carolina","mcdowell",NA,NA,"","","","","e70eb627-a019-4c11-959a-d1a4ccf7c2d3","shortia galacifolia","PreservedSpecimen"
"Transylvania County, NC","united states","north carolina","transylvania county",NA,NA,"","","","","eb013691-d560-472f-88e9-3b7abbea9b09","shortia galacifolia","PreservedSpecimen"
"Highlands, Macon Co., N.C.","united states","north carolina","macon",NA,NA,"","","","","eb5343c3-f57c-4db0-b646-b65f32723dab","shortia galacifolia","PreservedSpecimen"
NA,"united states","south carolina","oconee",NA,NA,"","","","","ed9702bd-b2d1-42c1-80c1-778169c5196b","shortia galacifolia","PreservedSpecimen"
NA,"united states","south carolina","oconee",NA,NA,"","","","","ee02313b-a3b2-4ae8-9b3c-af503d0da529","shortia galacifolia","PreservedSpecimen"
NA,"united states","south carolina","oconee",NA,NA,"","","","","eea0c49e-890a-4704-b985-db1e7b46575c","shortia galacifolia","PreservedSpecimen"
NA,"united states","georgia","rabun",NA,NA,"","","","","ef73b229-afa9-474b-97e7-37aec8547b2c","shortia galacifolia","PreservedSpecimen"
NA,"united states","south carolina","pickens",NA,NA,"","","","","f0a451d4-42c8-4807-a060-d8cd11479006","shortia galacifolia","PreservedSpecimen"
NA,"united states","north carolina","burke",NA,NA,"","","","","f0e7179d-bc62-4995-a472-47cb15c619da","shortia galacifolia","PreservedSpecimen"
NA,"united states","south carolina","greenville co.",NA,NA,"","","","","f20ea817-a303-4132-998d-faffb1c45d76","shortia galacifolia","PreservedSpecimen"
NA,"united states","north carolina",NA,NA,NA,"","","","","f2a6b75f-abb9-41e6-93da-abd74a86be2a","shortia galacifolia","PreservedSpecimen"
NA,"united states","south carolina","oconee",NA,NA,"","","","","f2c625d1-77fa-4954-a061-7143e7cd573f","shortia galacifolia","PreservedSpecimen"
"In cultivation at home of Mrs. S.C. Stewart. Plant from those set out by T.G. Harbison at Highlands, N.C.","united states","north carolina","macon",NA,NA,"","","","","f366f2f0-b7e0-4bee-8a88-adea64973475","shortia galacifolia","PreservedSpecimen"
"United States, North Carolina, Durham, Duke University Garden",NA,NA,NA,NA,NA,"","","","","f4225017-9d35-4fc2-b5f3-63e6ea8311ce","shortia galacifolia","MachineObservation"
NA,"united states","south carolina","oconee",NA,NA,"","","","","f4dad5b2-0401-4b09-bbe0-b5761af48b12","shortia galacifolia","PreservedSpecimen"
NA,"united states","north carolina","mcdowell",NA,NA,"","","","","f5a52117-0195-4b97-aead-9d47869b61a9","shortia galacifolia","PreservedSpecimen"
"at the first locality on Catawba River","united states","north carolina","mcdowell",NA,NA,"","","","","f78c1236-5b3c-4f3d-aebe-21f970cd2e18","shortia galacifolia","PreservedSpecimen"
NA,"united states","south carolina","oconee",NA,NA,"","","","","f8bf895f-5d94-446b-8a3e-db636b6300fa","shortia galacifolia","PreservedSpecimen"
NA,"united states","south carolina","oconee county",NA,NA,"","","","","f9aadbf4-d84d-4aba-abd5-710cc26a95c5","shortia galacifolia","PreservedSpecimen"
NA,"united states","south carolina",NA,NA,NA,"","","","","fb6960ce-8121-44d8-813c-3ec9f5e3e414","shortia galacifolia","PreservedSpecimen"
NA,"united states","south carolina","oconee",NA,NA,"","","","","fcc27cb9-393f-4cc4-9e51-837e12535687","shortia galacifolia","PreservedSpecimen"
NA,"united states","south carolina","pickens",NA,NA,"","","","","fd928151-2ddc-440d-ba3c-e7893e0cf6ea","shortia galacifolia","PreservedSpecimen"
"Reed Creek, South of Glade Mountain","united states","georgia","rabun county",NA,NA,"","","","","ffc3a992-5f0d-4142-87d5-36f08b34e374","shortia galacifolia","PreservedSpecimen"
NA,"united states","north carolina",NA,NA,NA,"","","","","ffd628c1-c105-4f2f-a2b9-3c00706e6b16","shortia galacifolia","PreservedSpecimen"
NA,NA,NA,NA,NA,NA,"","","","","3112732426","Shortia galacifolia Torr. & A.Gray","HUMAN_OBSERVATION"
NA,NA,NA,NA,NA,NA,"","","","","2579258633","Shortia galacifolia Torr. & A.Gray","HUMAN_OBSERVATION"
NA,NA,NA,NA,NA,NA,"","","","","1899815243","Shortia galacifolia Torr. & A.Gray","HUMAN_OBSERVATION"
NA,"United States of America","Alabama","DeKalb",NA,NA,"","","","","2237628547","Shortia galacifolia Torr. & A.Gray","OCCURRENCE"
NA,"United States of America","North Carolina","Macon",NA,NA,"","","","","1274555630","Shortia galacifolia Torr. & A.Gray","HUMAN_OBSERVATION"
NA,"United States of America","North Carolina","Transylvania",NA,NA,"","","","","1274236422","Shortia galacifolia Torr. & A.Gray","OCCURRENCE"
NA,"United States of America","North Carolina","Transylvania",NA,NA,"","","","","1274236700","Shortia galacifolia Torr. & A.Gray","OCCURRENCE"
NA,"United States of America","North Carolina","Transylvania",NA,NA,"","","","","1274236224","Shortia galacifolia Torr. & A.Gray","OCCURRENCE"
NA,"United States of America","North Carolina","Transylvania",NA,NA,"","","","","1274238043","Shortia galacifolia Torr. & A.Gray","OCCURRENCE"
NA,"United States of America","South Carolina","Oconee Co.",NA,NA,"","","","","1571030645","Shortia galacifolia Torr. & A.Gray","PRESERVED_SPECIMEN"
NA,"United States of America","North Carolina","Transylvania",NA,NA,"","","","","1273990453","Shortia galacifolia Torr. & A.Gray","OCCURRENCE"
NA,"United States of America","North Carolina","Transylvania",NA,NA,"","","","","1274292167","Shortia galacifolia Torr. & A.Gray","OCCURRENCE"
NA,"United States of America","North Carolina","Transylvania",NA,NA,"","","","","1274018329","Shortia galacifolia Torr. & A.Gray","OCCURRENCE"
NA,"United States of America","North Carolina","Transylvania",NA,NA,"","","","","1274330902","Shortia galacifolia Torr. & A.Gray","HUMAN_OBSERVATION"
NA,"United States of America","North Carolina","Transylvania",NA,NA,"","","","","1274236651","Shortia galacifolia Torr. & A.Gray","OCCURRENCE"
NA,"United States of America","North Carolina","Transylvania",NA,NA,"","","","","1274027340","Shortia galacifolia Torr. & A.Gray","HUMAN_OBSERVATION"
NA,"United States of America","North Carolina","Transylvania",NA,NA,"","","","","1273995000","Shortia galacifolia Torr. & A.Gray","OCCURRENCE"
NA,"United States of America","North Carolina","Transylvania",NA,NA,"","","","","1273999171","Shortia galacifolia Torr. & A.Gray","HUMAN_OBSERVATION"
NA,"United States of America","North Carolina","Transylvania",NA,NA,"","","","","1274235921","Shortia galacifolia Torr. & A.Gray","OCCURRENCE"
NA,"United States of America","North Carolina","Transylvania",NA,NA,"","","","","1274236273","Shortia galacifolia Torr. & A.Gray","OCCURRENCE"
NA,"United States of America","North Carolina","Transylvania",NA,NA,"","","","","1274236742","Shortia galacifolia Torr. & A.Gray","OCCURRENCE"
NA,"United States of America","South Carolina","Oconee",NA,NA,"","","","","1274094122","Shortia galacifolia Torr. & A.Gray","OCCURRENCE"
NA,"United States of America","North Carolina","Transylvania",NA,NA,"","","","","1274008196","Shortia galacifolia Torr. & A.Gray","HUMAN_OBSERVATION"
"Fuller Tract, upland woods to ravines.","United States of America","Kentucky","Powell",NA,NA,"","","","","1978078632","Shortia galacifolia Torr. & A.Gray","PRESERVED_SPECIMEN"
NA,"United States of America","North Carolina","Transylvania",NA,NA,"","","","","1274010688","Shortia galacifolia Torr. & A.Gray","OCCURRENCE"
NA,"United States of America","North Carolina","Transylvania",NA,NA,"","","","","1274014644","Shortia galacifolia Torr. & A.Gray","OCCURRENCE"
NA,"United States of America","North Carolina","Transylvania",NA,NA,"","","","","1274014484","Shortia galacifolia Torr. & A.Gray","OCCURRENCE"
NA,"United States of America","South Carolina","Pickens",NA,NA,"","","","","1274084859","Shortia galacifolia Torr. & A.Gray","OCCURRENCE"
NA,"United States of America","South Carolina","Pickens",NA,NA,"","","","","1274093349","Shortia galacifolia Torr. & A.Gray","OCCURRENCE"
"Texas; Texas Jim Hogg Co. Along S side of rd TXhwy 285, 0.5 mi E of FM 1017 ca 1.5 mi E of Hebbronville. Across from was","United States of America",NA,NA,NA,NA,"","","","","1030453994","Shortia galacifolia Torr. & A.Gray","PRESERVED_SPECIMEN"
NA,"United States of America","South Carolina","Oconee",NA,NA,"","","","","1274085150","Shortia galacifolia Torr. & A.Gray","OCCURRENCE"
NA,"United States of America","South Carolina","Oconee",NA,NA,"","","","","1274085861","Shortia galacifolia Torr. & A.Gray","OCCURRENCE"
NA,"United States of America","South Carolina","Pickens",NA,NA,"","","","","1274091582","Shortia galacifolia Torr. & A.Gray","OCCURRENCE"
NA,"United States of America","South Carolina","Pickens",NA,NA,"","","","","1274093630","Shortia galacifolia Torr. & A.Gray","OCCURRENCE"
NA,"United States of America","South Carolina","Pickens",NA,NA,"","","","","1274093640","Shortia galacifolia Torr. & A.Gray","OCCURRENCE"
NA,"United States of America","South Carolina","Pickens",NA,NA,"","","","","1274093654","Shortia galacifolia Torr. & A.Gray","OCCURRENCE"
NA,"United States of America","South Carolina","Pickens",NA,NA,"","","","","1274093662","Shortia galacifolia Torr. & A.Gray","OCCURRENCE"
NA,"United States of America","South Carolina","Oconee",NA,NA,"","","","","1274093722","Shortia galacifolia Torr. & A.Gray","OCCURRENCE"
NA,"United States of America","South Carolina","Pickens County",NA,NA,"","","","","1849116041","Shortia galacifolia Torr. & A.Gray","PRESERVED_SPECIMEN"
NA,"United States of America","South Carolina","Pickens",NA,NA,"","","","","3344492495","Shortia galacifolia Torr. & A.Gray","PRESERVED_SPECIMEN"
NA,"United States of America","Virginia","Patrick",NA,NA,"","","","","1978068393","Shortia galacifolia Torr. & A.Gray","PRESERVED_SPECIMEN"
NA,"United States of America","South Carolina","Oconee",NA,NA,"","","","","3344492498","Shortia galacifolia Torr. & A.Gray","PRESERVED_SPECIMEN"
NA,"United States of America","South Carolina","Pickens",NA,NA,"","","","","1274087197","Shortia galacifolia Torr. & A.Gray","OCCURRENCE"
NA,"United States of America","South Carolina","Pickens",NA,NA,"","","","","1274094306","Shortia galacifolia Torr. & A.Gray","OCCURRENCE"
NA,"United States of America","South Carolina","Pickens Co.",NA,NA,"","","","","1571029903","Shortia galacifolia Torr. & A.Gray","PRESERVED_SPECIMEN"
NA,"United States of America","South Carolina","Greenville",NA,NA,"","","","","1274094034","Shortia galacifolia Torr. & A.Gray","OCCURRENCE"
NA,"United States of America","South Carolina","Oconee County",NA,NA,"","","","","1849134520","Shortia galacifolia Torr. & A.Gray","PRESERVED_SPECIMEN"
NA,"United States of America","South Carolina","Pickens County",NA,NA,"","","","","1849143145","Shortia galacifolia Torr. & A.Gray","PRESERVED_SPECIMEN"
NA,"United States of America","South Carolina","Oconee",NA,NA,"","","","","3344412588","Shortia galacifolia Torr. & A.Gray","PRESERVED_SPECIMEN"
NA,"United States of America","South Carolina","Pickens",NA,NA,"","","","","3344492497","Shortia galacifolia Torr. & A.Gray","PRESERVED_SPECIMEN"
"Sapphire","United States of America","North Carolina","Transylvania County",NA,NA,"","","","","1849110124","Shortia galacifolia Torr. & A.Gray","PRESERVED_SPECIMEN"
NA,"United States of America","South Carolina","Pickens",NA,NA,"","","","","3344492284","Shortia galacifolia Torr. & A.Gray","PRESERVED_SPECIMEN"
NA,"United States of America","Georgia","Rabun",NA,NA,"","","","","1273982530","Shortia galacifolia Torr. & A.Gray","HUMAN_OBSERVATION"
NA,"United States of America","Georgia","Rabun",NA,NA,"","","","","1274642789","Shortia galacifolia Torr. & A.Gray","HUMAN_OBSERVATION"
NA,"United States of America","South Carolina","Pickens",NA,NA,"","","","","1274086594","Shortia galacifolia Torr. & A.Gray","OCCURRENCE"
NA,"United States of America","South Carolina","Oconee",NA,NA,"","","","","1274086605","Shortia galacifolia Torr. & A.Gray","OCCURRENCE"
"E of Lake Jocassee, vicinity of Cane Creek and Roy Jones Highway. Cleo Chapman Road extension, N of Rte. 11.","United States of America","South Carolina","Pickens Co.",NA,NA,"","","","","2251690710","Shortia galacifolia Torr. & A.Gray","PRESERVED_SPECIMEN"
NA,"United States of America","South Carolina","Pickens",NA,NA,"","","","","1274085218","Shortia galacifolia Torr. & A.Gray","OCCURRENCE"
NA,"United States of America","South Carolina","Pickens",NA,NA,"","","","","1274085628","Shortia galacifolia Torr. & A.Gray","OCCURRENCE"
NA,"United States of America","South Carolina","Pickens",NA,NA,"","","","","1274088276","Shortia galacifolia Torr. & A.Gray","OCCURRENCE"
NA,"United States of America","South Carolina","Pickens",NA,NA,"","","","","1274094045","Shortia galacifolia Torr. & A.Gray","OCCURRENCE"
NA,"United States of America","South Carolina","Pickens County",NA,NA,"","","","","1849105745","Shortia galacifolia Torr. & A.Gray","PRESERVED_SPECIMEN"
NA,"United States of America","South Carolina","Pickens",NA,NA,"","","","","3344492282","Shortia galacifolia Torr. & A.Gray","PRESERVED_SPECIMEN"
NA,"United States of America","South Carolina","Oconee",NA,NA,"","","","","1274085105","Shortia galacifolia Torr. & A.Gray","OCCURRENCE"
NA,"United States of America","South Carolina","Oconee Co.",NA,NA,"","","","","1571029765","Shortia galacifolia Torr. & A.Gray","PRESERVED_SPECIMEN"
NA,"United States of America","South Carolina","Pickens County",NA,NA,"","","","","1849131507","Shortia galacifolia Torr. & A.Gray","PRESERVED_SPECIMEN"
NA,"United States of America","South Carolina","Oconee",NA,NA,"","","","","2234462338","Shortia galacifolia Torr. & A.Gray","PRESERVED_SPECIMEN"
NA,"United States of America","South Carolina","Pickens",NA,NA,"","","","","3344492290","Shortia galacifolia Torr. & A.Gray","PRESERVED_SPECIMEN"
NA,"United States of America","South Carolina","Oconee",NA,NA,"","","","","3344492494","Shortia galacifolia Torr. & A.Gray","PRESERVED_SPECIMEN"
NA,"United States of America","South Carolina","Pickens",NA,NA,"","","","","3344492292","Shortia galacifolia Torr. & A.Gray","PRESERVED_SPECIMEN"
NA,"United States of America","South Carolina","Pickens",NA,NA,"","","","","3344492499","Shortia galacifolia Torr. & A.Gray","PRESERVED_SPECIMEN"
NA,"United States of America","South Carolina","Pickens",NA,NA,"","","","","1274094361","Shortia galacifolia Torr. & A.Gray","OCCURRENCE"
NA,"United States of America","South Carolina","Pickens County",NA,NA,"","","","","1849178273","Shortia galacifolia Torr. & A.Gray","PRESERVED_SPECIMEN"
NA,"United States of America","South Carolina","Pickens",NA,NA,"","","","","3344492287","Shortia galacifolia Torr. & A.Gray","PRESERVED_SPECIMEN"
NA,"United States of America","South Carolina","Pickens",NA,NA,"","","","","3344492291","Shortia galacifolia Torr. & A.Gray","PRESERVED_SPECIMEN"
NA,"United States of America","South Carolina","Pickens",NA,NA,"","","","","3344492293","Shortia galacifolia Torr. & A.Gray","PRESERVED_SPECIMEN"
NA,"United States of America","South Carolina","Pickens",NA,NA,"","","","","3344492309","Shortia galacifolia Torr. & A.Gray","PRESERVED_SPECIMEN"
NA,"United States of America","North Carolina","Macon",NA,NA,"","","","","3469906803","Shortia galacifolia Torr. & A.Gray","PRESERVED_SPECIMEN"
"John's Creek/Fish Hatchery","United States of America","North Carolina","McDowell",NA,NA,"","","","","2273382452","Shortia galacifolia Torr. & A.Gray","PRESERVED_SPECIMEN"
"Highlands Biological Station, Highlands","United States of America","North Carolina","Macon",NA,NA,"","","","","2859104170","Shortia galacifolia Torr. & A.Gray","PRESERVED_SPECIMEN"
NA,"United States of America","South Carolina","Oconee",NA,NA,"","","","","1274094280","Shortia galacifolia Torr. & A.Gray","OCCURRENCE"
NA,"United States of America","North Carolina","Jackson",NA,NA,"","","","","3470006665","Shortia galacifolia Torr. & A.Gray","PRESERVED_SPECIMEN"
NA,"United States of America","South Carolina","Pickens",NA,NA,"","","","","3344492283","Shortia galacifolia Torr. & A.Gray","PRESERVED_SPECIMEN"
NA,"United States of America","South Carolina","Oconee",NA,NA,"","","","","1274084913","Shortia galacifolia Torr. & A.Gray","OCCURRENCE"
NA,"United States of America","South Carolina","Oconee",NA,NA,"","","","","1274084935","Shortia galacifolia Torr. & A.Gray","OCCURRENCE"
NA,"United States of America","South Carolina","Oconee",NA,NA,"","","","","1274085020","Shortia galacifolia Torr. & A.Gray","OCCURRENCE"
NA,"United States of America","South Carolina","Pickens",NA,NA,"","","","","1274085079","Shortia galacifolia Torr. & A.Gray","OCCURRENCE"
NA,"United States of America","South Carolina","Pickens",NA,NA,"","","","","1274085088","Shortia galacifolia Torr. & A.Gray","OCCURRENCE"
NA,"United States of America","South Carolina","Oconee",NA,NA,"","","","","1274085128","Shortia galacifolia Torr. & A.Gray","OCCURRENCE"
NA,"United States of America","South Carolina","Oconee",NA,NA,"","","","","1274085318","Shortia galacifolia Torr. & A.Gray","OCCURRENCE"
NA,"United States of America","South Carolina","Oconee",NA,NA,"","","","","1274085662","Shortia galacifolia Torr. & A.Gray","OCCURRENCE"
NA,"United States of America","South Carolina","Oconee",NA,NA,"","","","","1274087143","Shortia galacifolia Torr. & A.Gray","OCCURRENCE"
NA,"United States of America","South Carolina","Oconee",NA,NA,"","","","","1274087188","Shortia galacifolia Torr. & A.Gray","OCCURRENCE"
NA,"United States of America","South Carolina","Oconee",NA,NA,"","","","","1274087194","Shortia galacifolia Torr. & A.Gray","OCCURRENCE"
NA,"United States of America","South Carolina","Oconee",NA,NA,"","","","","1274087800","Shortia galacifolia Torr. & A.Gray","OCCURRENCE"
NA,"United States of America","South Carolina","Oconee",NA,NA,"","","","","1274091503","Shortia galacifolia Torr. & A.Gray","OCCURRENCE"
NA,"United States of America","South Carolina","Pickens",NA,NA,"","","","","1274091508","Shortia galacifolia Torr. & A.Gray","OCCURRENCE"
NA,"United States of America","South Carolina","Oconee",NA,NA,"","","","","1274091547","Shortia galacifolia Torr. & A.Gray","OCCURRENCE"
NA,"United States of America","South Carolina","Pickens",NA,NA,"","","","","1274091622","Shortia galacifolia Torr. & A.Gray","OCCURRENCE"
NA,"United States of America","South Carolina","Pickens",NA,NA,"","","","","1274093288","Shortia galacifolia Torr. & A.Gray","OCCURRENCE"
NA,"United States of America","South Carolina","Oconee",NA,NA,"","","","","1274093327","Shortia galacifolia Torr. & A.Gray","OCCURRENCE"
NA,"United States of America","South Carolina","Oconee",NA,NA,"","","","","1274093358","Shortia galacifolia Torr. & A.Gray","OCCURRENCE"
NA,"United States of America","South Carolina","Pickens",NA,NA,"","","","","1274093389","Shortia galacifolia Torr. & A.Gray","OCCURRENCE"
NA,"United States of America","South Carolina","Oconee",NA,NA,"","","","","1274093390","Shortia galacifolia Torr. & A.Gray","OCCURRENCE"
NA,"United States of America","South Carolina","Oconee",NA,NA,"","","","","1274093407","Shortia galacifolia Torr. & A.Gray","OCCURRENCE"
NA,"United States of America","South Carolina","Oconee",NA,NA,"","","","","1274093605","Shortia galacifolia Torr. & A.Gray","OCCURRENCE"
NA,"United States of America","South Carolina","Oconee",NA,NA,"","","","","1274093646","Shortia galacifolia Torr. & A.Gray","OCCURRENCE"
NA,"United States of America","South Carolina","Oconee",NA,NA,"","","","","1274093653","Shortia galacifolia Torr. & A.Gray","OCCURRENCE"
NA,"United States of America","South Carolina","Oconee",NA,NA,"","","","","1274093731","Shortia galacifolia Torr. & A.Gray","OCCURRENCE"
NA,"United States of America","South Carolina","Pickens",NA,NA,"","","","","1274093740","Shortia galacifolia Torr. & A.Gray","OCCURRENCE"
NA,"United States of America","South Carolina","Pickens",NA,NA,"","","","","1274093821","Shortia galacifolia Torr. & A.Gray","OCCURRENCE"
NA,"United States of America","South Carolina","Pickens",NA,NA,"","","","","1274094067","Shortia galacifolia Torr. & A.Gray","OCCURRENCE"
NA,"United States of America","South Carolina","Pickens",NA,NA,"","","","","1274094279","Shortia galacifolia Torr. & A.Gray","OCCURRENCE"
NA,"United States of America","South Carolina","Oconee",NA,NA,"","","","","1274094311","Shortia galacifolia Torr. & A.Gray","OCCURRENCE"
NA,"United States of America","South Carolina","Oconee",NA,NA,"","","","","1274094359","Shortia galacifolia Torr. & A.Gray","OCCURRENCE"
NA,"United States of America","South Carolina","Pickens",NA,NA,"","","","","1274094362","Shortia galacifolia Torr. & A.Gray","OCCURRENCE"
NA,"United States of America","South Carolina","Pickens",NA,NA,"","","","","1274094369","Shortia galacifolia Torr. & A.Gray","OCCURRENCE"
NA,"United States of America","South Carolina","Oconee",NA,NA,"","","","","1274094375","Shortia galacifolia Torr. & A.Gray","OCCURRENCE"
NA,"United States of America","South Carolina","Oconee",NA,NA,"","","","","1274094388","Shortia galacifolia Torr. & A.Gray","OCCURRENCE"
NA,"United States of America","South Carolina","Oconee",NA,NA,"","","","","1274094390","Shortia galacifolia Torr. & A.Gray","OCCURRENCE"
NA,"United States of America","South Carolina","Oconee",NA,NA,"","","","","1274094426","Shortia galacifolia Torr. & A.Gray","OCCURRENCE"
"Locality Not Recorded","United States of America","North Carolina","McDowell County",NA,NA,"","","","","1849140127","Shortia galacifolia Torr. & A.Gray","PRESERVED_SPECIMEN"
NA,"United States of America","South Carolina","Oconee",NA,NA,"","","","","1274085189","Shortia galacifolia Torr. & A.Gray","OCCURRENCE"
NA,"United States of America","South Carolina","Greenville Co.",NA,NA,"","","","","1571029442","Shortia galacifolia Torr. & A.Gray","PRESERVED_SPECIMEN"
NA,"United States of America","South Carolina","Oconee",NA,NA,"","","","","1274085138","Shortia galacifolia Torr. & A.Gray","OCCURRENCE"
NA,"United States of America","North Carolina","Transylvania",NA,NA,"","","","","1274029949","Shortia galacifolia Torr. & A.Gray","HUMAN_OBSERVATION"
NA,"United States of America","South Carolina","Oconee County",NA,NA,"","","","","1849119631","Shortia galacifolia Torr. & A.Gray","PRESERVED_SPECIMEN"
NA,"United States of America","South Carolina","Oconee",NA,NA,"","","","","3344492468","Shortia galacifolia Torr. & A.Gray","PRESERVED_SPECIMEN"
NA,"United States of America","South Carolina","Oconee",NA,NA,"","","","","1274084816","Shortia galacifolia Torr. & A.Gray","OCCURRENCE"
NA,"United States of America","South Carolina","Oconee",NA,NA,"","","","","1274094018","Shortia galacifolia Torr. & A.Gray","OCCURRENCE"
NA,"United States of America","Virginia","Amherst",NA,NA,"","","","","3496971756","Shortia galacifolia Torr. & A.Gray","PRESERVED_SPECIMEN"
NA,"United States of America","South Carolina","Pickens",NA,NA,"","","","","1274084952","Shortia galacifolia Torr. & A.Gray","OCCURRENCE"
NA,"United States of America","South Carolina","Oconee",NA,NA,"","","","","1274084991","Shortia galacifolia Torr. & A.Gray","OCCURRENCE"
NA,"United States of America","South Carolina","Pickens",NA,NA,"","","","","1274094317","Shortia galacifolia Torr. & A.Gray","OCCURRENCE"
NA,"United States of America","South Carolina","Oconee",NA,NA,"","","","","1274094329","Shortia galacifolia Torr. & A.Gray","OCCURRENCE"
NA,"United States of America","South Carolina","Oconee",NA,NA,"","","","","2234462913","Shortia galacifolia Torr. & A.Gray","PRESERVED_SPECIMEN"
NA,"United States of America","South Carolina","Oconee",NA,NA,"","","","","3344492458","Shortia galacifolia Torr. & A.Gray","PRESERVED_SPECIMEN"
NA,"United States of America","South Carolina","Oconee",NA,NA,"","","","","3344492476","Shortia galacifolia Torr. & A.Gray","PRESERVED_SPECIMEN"
NA,"United States of America","South Carolina","Oconee",NA,NA,"","","","","3344492489","Shortia galacifolia Torr. & A.Gray","PRESERVED_SPECIMEN"
NA,"United States of America","South Carolina","Oconee",NA,NA,"","","","","3344492491","Shortia galacifolia Torr. & A.Gray","PRESERVED_SPECIMEN"
NA,"United States of America","South Carolina","Oconee",NA,NA,"","","","","3344492493","Shortia galacifolia Torr. & A.Gray","PRESERVED_SPECIMEN"
NA,"United States of America","South Carolina","Oconee County",NA,NA,"","","","","1849137584","Shortia galacifolia Torr. & A.Gray","PRESERVED_SPECIMEN"
NA,"United States of America","South Carolina","Oconee County",NA,NA,"","","","","1849153333","Shortia galacifolia Torr. & A.Gray","PRESERVED_SPECIMEN"
NA,"United States of America","South Carolina","Oconee",NA,NA,"","","","","3344492479","Shortia galacifolia Torr. & A.Gray","PRESERVED_SPECIMEN"
NA,"United States of America","South Carolina","Oconee",NA,NA,"","","","","3344492490","Shortia galacifolia Torr. & A.Gray","PRESERVED_SPECIMEN"
"Near Asheville, Buncombe County, North Carolina.","United States of America","North Carolina","Buncombe",NA,NA,"","","","","2242401789","Shortia galacifolia Torr. & A.Gray","PRESERVED_SPECIMEN"
NA,"United States of America","South Carolina","Pickens",NA,NA,"","","","","1274085590","Shortia galacifolia Torr. & A.Gray","OCCURRENCE"
NA,"United States of America","South Carolina","Oconee",NA,NA,"","","","","1274085614","Shortia galacifolia Torr. & A.Gray","OCCURRENCE"
NA,"United States of America","South Carolina","Oconee Co.",NA,NA,"","","","","1571030957","Shortia galacifolia Torr. & A.Gray","PRESERVED_SPECIMEN"
"devil's for, one mile west of confluence with Whitewater river, jacasses community","United States of America","South Carolina",NA,NA,NA,"","","","","1988183134","Shortia galacifolia Torr. & A.Gray","PRESERVED_SPECIMEN"
NA,"United States of America","South Carolina",NA,NA,NA,"","","","","2452783048","Shortia galacifolia Torr. & A.Gray","PRESERVED_SPECIMEN"
"Devil's Fork, one mi. W of confluence with Whitewater River, Jocassee community","United States of America","South Carolina","Oconee",NA,NA,"","","","","3125113956","Shortia galacifolia Torr. & A.Gray","PRESERVED_SPECIMEN"
"South Carolina, Oconee County, Devil's Fork, one mile west of confluence with Whitewater River, Jocassee community. East facing, shaded stream bank in rich hardwoods.","United States of America",NA,NA,NA,NA,"","","","","2515368477","Shortia galacifolia Torr. & A.Gray","PRESERVED_SPECIMEN"
NA,"United States of America","South Carolina","Oconee County",NA,NA,"","","","","1849134796","Shortia galacifolia Torr. & A.Gray","PRESERVED_SPECIMEN"
NA,"United States of America","South Carolina","Oconee",NA,NA,"","","","","1987015362","Shortia galacifolia Torr. & A.Gray","PRESERVED_SPECIMEN"
NA,"United States of America","South Carolina","Oconee",NA,NA,"","","","","2234460893","Shortia galacifolia Torr. & A.Gray","PRESERVED_SPECIMEN"
NA,"United States of America","South Carolina","Oconee",NA,NA,"","","","","2234463977","Shortia galacifolia Torr. & A.Gray","PRESERVED_SPECIMEN"
NA,"United States of America","South Carolina","Oconee",NA,NA,"","","","","2859084424","Shortia galacifolia Torr. & A.Gray","PRESERVED_SPECIMEN"
NA,"United States of America","South Carolina","Oconee",NA,NA,"","","","","3344492478","Shortia galacifolia Torr. & A.Gray","PRESERVED_SPECIMEN"
NA,"United States of America","South Carolina","Oconee",NA,NA,"","","","","3470008699","Shortia galacifolia Torr. & A.Gray","PRESERVED_SPECIMEN"
NA,"United States of America","South Carolina","Oconee",NA,NA,"","","","","3766341234","Shortia galacifolia Torr. & A.Gray","PRESERVED_SPECIMEN"
NA,"United States of America","North Carolina","Swain",NA,NA,"","","","","1273999932","Shortia galacifolia Torr. & A.Gray","OCCURRENCE"
NA,"United States of America","North Carolina","Swain",NA,NA,"","","","","1274017251","Shortia galacifolia Torr. & A.Gray","OCCURRENCE"
"Bunches Creek, on mossy bank near creek just off Big Cove Road, Cherokee, N.C.","United States of America","North Carolina","Swain",NA,NA,"","","","","2234460789","Shortia galacifolia Torr. & A.Gray","PRESERVED_SPECIMEN"
NA,"United States of America","South Carolina","Oconee County",NA,NA,"","","","","1849109198","Shortia galacifolia Torr. & A.Gray","PRESERVED_SPECIMEN"
NA,"United States of America","South Carolina","Oconee County",NA,NA,"","","","","1849169978","Shortia galacifolia Torr. & A.Gray","PRESERVED_SPECIMEN"
NA,"United States of America","South Carolina","Oconee",NA,NA,"","","","","2234461877","Shortia galacifolia Torr. & A.Gray","PRESERVED_SPECIMEN"
"Cultivated New York, Nassau County, Sands Point, Creem property","United States of America","New York","Nassau",NA,NA,"","","","","2234461408","Shortia galacifolia Torr. & A.Gray","PRESERVED_SPECIMEN"
NA,"United States of America","South Carolina","Oconee County",NA,NA,"","","","","1849184867","Shortia galacifolia Torr. & A.Gray","PRESERVED_SPECIMEN"
NA,"United States of America","North Carolina","Macon",NA,NA,"","","","","1274015732","Shortia galacifolia Torr. & A.Gray","OCCURRENCE"
"Cove near Horsepasture River D P Co. Tract","United States of America","North Carolina","Macon",NA,NA,"","","","","2234461670","Shortia galacifolia Torr. & A.Gray","PRESERVED_SPECIMEN"
NA,"United States of America","North Carolina","Transylvania",NA,NA,"","","","","1274035306","Shortia galacifolia Torr. & A.Gray","OCCURRENCE"
"By stream of Campsite","United States of America","North Carolina","Transylvania",NA,NA,"","","","","2234463543","Shortia galacifolia Torr. & A.Gray","PRESERVED_SPECIMEN"
"Keowee River.","United States of America","South Carolina","Pickens",NA,NA,"","","","","2412539931","Shortia galacifolia Torr. & A.Gray","PRESERVED_SPECIMEN"
NA,"United States of America","South Carolina","Oconee",NA,NA,"","","","","3766341230","Shortia galacifolia Torr. & A.Gray","PRESERVED_SPECIMEN"
NA,"United States of America","South Carolina",NA,NA,NA,"","","","","3766341235","Shortia galacifolia Torr. & A.Gray","PRESERVED_SPECIMEN"
NA,"United States of America","North Carolina","Transylvania",NA,NA,"","","","","1273995877","Shortia galacifolia Torr. & A.Gray","OCCURRENCE"
NA,"United States of America","North Carolina","Transylvania",NA,NA,"","","","","1274022055","Shortia galacifolia Torr. & A.Gray","OCCURRENCE"
NA,"United States of America","South Carolina","Pickens",NA,NA,"","","","","2237569973","Shortia galacifolia Torr. & A.Gray","OCCURRENCE"
NA,"United States of America","South Carolina","Pickens",NA,NA,"","","","","1274093402","Shortia galacifolia Torr. & A.Gray","OCCURRENCE"
NA,"United States of America","South Carolina","Oconee",NA,NA,"","","","","1274093429","Shortia galacifolia Torr. & A.Gray","OCCURRENCE"
NA,"United States of America","South Carolina","Oconee",NA,NA,"","","","","1319362548","Shortia galacifolia Torr. & A.Gray","PRESERVED_SPECIMEN"
NA,"United States of America","South Carolina","Oconee",NA,NA,"","","","","1274094087","Shortia galacifolia Torr. & A.Gray","OCCURRENCE"
NA,"United States of America","South Carolina","Pickens",NA,NA,"","","","","1274094141","Shortia galacifolia Torr. & A.Gray","OCCURRENCE"
NA,"United States of America","South Carolina","Oconee",NA,NA,"","","","","1322284344","Shortia galacifolia Torr. & A.Gray","PRESERVED_SPECIMEN"
NA,"United States of America","South Carolina","Oconee Co.",NA,NA,"","","","","1571029484","Shortia galacifolia Torr. & A.Gray","PRESERVED_SPECIMEN"
NA,"United States of America","South Carolina","Pickens",NA,NA,"","","","","2234463577","Shortia galacifolia Torr. & A.Gray","PRESERVED_SPECIMEN"
NA,"United States of America","South Carolina","Oconee",NA,NA,"","","","","2859100425","Shortia galacifolia Torr. & A.Gray","PRESERVED_SPECIMEN"
NA,"United States of America","South Carolina","Oconee",NA,NA,"","","","","3344492475","Shortia galacifolia Torr. & A.Gray","PRESERVED_SPECIMEN"
NA,"United States of America","South Carolina","Oconee",NA,NA,"","","","","3344492481","Shortia galacifolia Torr. & A.Gray","PRESERVED_SPECIMEN"
NA,"United States of America","Virginia","Amherst",NA,NA,"","","","","1320375144","Shortia galacifolia Torr. & A.Gray","PRESERVED_SPECIMEN"
NA,"United States of America","North Carolina","Transylvania Co.",NA,NA,"","","","","1571029444","Shortia galacifolia Torr. & A.Gray","PRESERVED_SPECIMEN"
NA,"United States of America","North Carolina","Transylvania",NA,NA,"","","","","1274236329","Shortia galacifolia Torr. & A.Gray","OCCURRENCE"
NA,"United States of America","South Carolina","Oconee",NA,NA,"","","","","1274085565","Shortia galacifolia Torr. & A.Gray","OCCURRENCE"
NA,"United States of America","South Carolina","Oconee",NA,NA,"","","","","3344492464","Shortia galacifolia Torr. & A.Gray","PRESERVED_SPECIMEN"
NA,"United States of America","North Carolina",NA,NA,NA,"","","","","1318443526","Shortia galacifolia Torr. & A.Gray","PRESERVED_SPECIMEN"
NA,"United States of America","Georgia","Rabun",NA,NA,"","","","","1274021402","Shortia galacifolia Torr. & A.Gray","OCCURRENCE"
NA,"United States of America","South Carolina","Oconee",NA,NA,"","","","","2237570083","Shortia galacifolia Torr. & A.Gray","OCCURRENCE"
"Rabun County, GA","United States of America","Georgia","Rabun County",NA,NA,"","","","","3709821776","Shortia galacifolia Torr. & A.Gray","PRESERVED_SPECIMEN"
"Rabun County, GA","United States of America","Georgia","Rabun County",NA,NA,"","","","","3709836270","Shortia galacifolia Torr. & A.Gray","PRESERVED_SPECIMEN"
NA,"United States of America","North Carolina","Transylvania",NA,NA,"","","","","1274009624","Shortia galacifolia Torr. & A.Gray","OCCURRENCE"
"Near Toxaway, N.C. 16 miles from the highway. Sent us by R.P. Ashworth. Collected by Jack Dendy and D.S. Trammele and first transplanted to Henderson, N.C.","United States of America","North Carolina",NA,NA,NA,"","","","","2234461710","Shortia galacifolia Torr. & A.Gray","PRESERVED_SPECIMEN"
"San Diego","United States of America","California","San Diego",NA,NA,"","","","","3465126459","Shortia galacifolia Torr. & A.Gray","PRESERVED_SPECIMEN"
NA,"United States of America","South Carolina","Oconee",NA,NA,"","","","","1317711106","Shortia galacifolia Torr. & A.Gray","PRESERVED_SPECIMEN"
"white river, above jacassee, oconee County","United States of America","South Carolina",NA,NA,NA,"","","","","1988090355","Shortia galacifolia Torr. & A.Gray","PRESERVED_SPECIMEN"
"By Whitewater River, above Jocassee","United States of America","South Carolina","Oconee Co.",NA,NA,"","","","","2251690133","Shortia galacifolia Torr. & A.Gray","PRESERVED_SPECIMEN"
"Grayanae, shady banks under Rhododendron and Kalmia, by White water river, above Jocassee, Oconee County, South Carolina.","United States of America",NA,NA,NA,NA,"","","","","2515396511","Shortia galacifolia Torr. & A.Gray","PRESERVED_SPECIMEN"
"by White-water River, above Jocassee, Oconee County, South Carolina.","United States of America",NA,NA,NA,NA,"","","","","2516444482","Shortia galacifolia Torr. & A.Gray","PRESERVED_SPECIMEN"
NA,"United States of America","South Carolina","Oconee",NA,NA,"","","","","1987015061","Shortia galacifolia Torr. & A.Gray","PRESERVED_SPECIMEN"
NA,"United States of America","South Carolina","Oconee",NA,NA,"","","","","2234463239","Shortia galacifolia Torr. & A.Gray","PRESERVED_SPECIMEN"
NA,"United States of America","South Carolina","Oconee",NA,NA,"","","","","3344492462","Shortia galacifolia Torr. & A.Gray","PRESERVED_SPECIMEN"
NA,"United States of America","South Carolina","Oconee",NA,NA,"","","","","3344492463","Shortia galacifolia Torr. & A.Gray","PRESERVED_SPECIMEN"
NA,"United States of America","South Carolina","Oconee",NA,NA,"","","","","3470010733","Shortia galacifolia Torr. & A.Gray","PRESERVED_SPECIMEN"
NA,"United States of America","South Carolina","Oconee",NA,NA,"","","","","3829930186","Shortia galacifolia Torr. & A.Gray","PRESERVED_SPECIMEN"
"On Joe McNulty's road below Fish Hatchery on both sides of stream beginning at road. This is the first branch crossed on McNulty's road from Fish Hatchery road. Shortia comes to the road here on both sides and can be pcked from the road on the up side, and goes up and down for hundreds of yards. Mr. Townsend says at least 1/2 mi. up - has never followed it far down.","United States of America","North Carolina","McDowell",NA,NA,"","","","","2234462811","Shortia galacifolia Torr. & A.Gray","PRESERVED_SPECIMEN"
"Found by the first stream (small branch) on road to Joe McNulty's from Fish Hatchery road. About 50 yards upstream and going on as far as we went in scattered patches (about 200 yards) and accordingly to Mr. Townsend at least 1/2 mi. farther up.","United States of America","North Carolina","McDowell",NA,NA,"","","","","2234462815","Shortia galacifolia Torr. & A.Gray","PRESERVED_SPECIMEN"
"Plentiful along stream (above railway) that runs under C. C. & O. Ry. track just across from Joe McNulty's house. This is farther down same stream as no. 3 collection and probably occurs all the way between these stations.","United States of America","North Carolina","McDowell",NA,NA,"","","","","2234463148","Shortia galacifolia Torr. & A.Gray","PRESERVED_SPECIMEN"
"Found at the Fish Hatchery Branch about 1 1/2 mi. above Hatchery. It is very abundant on both banks for about 1/2 mi. and sometimes solid for 20x12 ft. To be sure to find this go to Fish Hatchery ang go up F.H. Branch (creek) for perhaps 1/2 mile and come to a valley pasture through which the branch runs. A saw mill was located here. There is now a pile of saw dust. Where the branch enters the open pasture from the woods, the Shortia begins and as far up as we went, about 1/4 mi., was in great abundance.","United States of America","North Carolina","McDowell",NA,NA,"","","","","2234463154","Shortia galacifolia Torr. & A.Gray","PRESERVED_SPECIMEN"
"Found on the right bank of Toni's Creek about 200 yds. up Toni's Creek from Toni's Creek road crossing about .3 mile from Highway 221, 5 miles north of Marion, McDowell Co., N.C.","United States of America","North Carolina","McDowell",NA,NA,"","","","","2234463929","Shortia galacifolia Torr. & A.Gray","PRESERVED_SPECIMEN"
NA,"United States of America","North Carolina","Macon",NA,NA,"","","","","1273987833","Shortia galacifolia Torr. & A.Gray","OCCURRENCE"
NA,"United States of America","North Carolina","Macon",NA,NA,"","","","","1274006297","Shortia galacifolia Torr. & A.Gray","OCCURRENCE"
"In cultivation at home of Mrs. S.C. Stewart. Plant from those set out by T.G. Harbison at Highlands, N.C.","United States of America","North Carolina","Macon",NA,NA,"","","","","2234461894","Shortia galacifolia Torr. & A.Gray","PRESERVED_SPECIMEN"
NA,"United States of America","South Carolina","Oconee",NA,NA,"","","","","1274093371","Shortia galacifolia Torr. & A.Gray","OCCURRENCE"
NA,"United States of America","South Carolina","Oconee",NA,NA,"","","","","2234461943","Shortia galacifolia Torr. & A.Gray","PRESERVED_SPECIMEN"
NA,"United States of America","South Carolina","Oconee",NA,NA,"","","","","2234463695","Shortia galacifolia Torr. & A.Gray","PRESERVED_SPECIMEN"
NA,"United States of America","South Carolina","Pickens",NA,NA,"","","","","1274084984","Shortia galacifolia Torr. & A.Gray","OCCURRENCE"
NA,"United States of America","South Carolina","Oconee",NA,NA,"","","","","1274085089","Shortia galacifolia Torr. & A.Gray","OCCURRENCE"
NA,"United States of America","South Carolina","Oconee",NA,NA,"","","","","2234462320","Shortia galacifolia Torr. & A.Gray","PRESERVED_SPECIMEN"
NA,"United States of America","North Carolina","Transylvania",NA,NA,"","","","","1273986720","Shortia galacifolia Torr. & A.Gray","OCCURRENCE"
NA,"United States of America","North Carolina","Transylvania",NA,NA,"","","","","1274039369","Shortia galacifolia Torr. & A.Gray","OCCURRENCE"
NA,"United States of America","North Carolina","Transylvania",NA,NA,"","","","","1318918723","Shortia galacifolia Torr. & A.Gray","PRESERVED_SPECIMEN"
"The Arnold Arboretum, at foot of Hemlock Hill near Mountain Laurels [Jamaica Plain]","United States of America","Massachusetts","Suffolk County",NA,NA,"","","","","1999118965","Shortia galacifolia Torr. & A.Gray","PRESERVED_SPECIMEN"
NA,"United States of America","North Carolina","Macon",NA,NA,"","","","","1274007536","Shortia galacifolia Torr. & A.Gray","OCCURRENCE"
NA,"United States of America","North Carolina","Macon",NA,NA,"","","","","1273992847","Shortia galacifolia Torr. & A.Gray","OCCURRENCE"
"By branch back of old nursery on Pierson place - planted by Harbison","United States of America","North Carolina","Macon",NA,NA,"","","","","2234463720","Shortia galacifolia Torr. & A.Gray","PRESERVED_SPECIMEN"
NA,"United States of America","South Carolina","Pickens",NA,NA,"","","","","3344492289","Shortia galacifolia Torr. & A.Gray","PRESERVED_SPECIMEN"
"Highlands, Macon Co., N.C.","United States of America","North Carolina","Macon",NA,NA,"","","","","2234463629","Shortia galacifolia Torr. & A.Gray","PRESERVED_SPECIMEN"
NA,"United States of America","North Carolina",NA,NA,NA,"","","","","3470002662","Shortia galacifolia Torr. & A.Gray","PRESERVED_SPECIMEN"
NA,"United States of America","South Carolina","Oconee",NA,NA,"","","","","3344492452","Shortia galacifolia Torr. & A.Gray","PRESERVED_SPECIMEN"
NA,"United States of America","South Carolina","Oconee",NA,NA,"","","","","3344492461","Shortia galacifolia Torr. & A.Gray","PRESERVED_SPECIMEN"
NA,"United States of America","South Carolina","Oconee",NA,NA,"","","","","3344492465","Shortia galacifolia Torr. & A.Gray","PRESERVED_SPECIMEN"
NA,"United States of America","North Carolina","Avery",NA,NA,"","","","","1273985713","Shortia galacifolia Torr. & A.Gray","OCCURRENCE"
"Highland Nursery at Pineola, N.C.","United States of America","North Carolina","Avery",NA,NA,"","","","","2234462058","Shortia galacifolia Torr. & A.Gray","PRESERVED_SPECIMEN"
"Swannanoa River","United States of America","North Carolina","Buncombe",NA,NA,"","","","","3341250354","Sherwoodia galacifolia (Torr. & A.Gray) House","PRESERVED_SPECIMEN"
"Swannanoa River","United States of America","North Carolina","Buncombe",NA,NA,"","","","","3341250354","Sherwoodia galacifolia (Torr. & A.Gray) House","PRESERVED_SPECIMEN"
NA,"United States of America","North Carolina",NA,NA,NA,"","","","","1321637616","Shortia galacifolia Torr. & A.Gray","PRESERVED_SPECIMEN"
"The New York Botanical Garden. Plants of Biltmore, North Carolina.","United States of America","North Carolina","Buncombe",NA,NA,"","","","","2234463072","Shortia galacifolia Torr. & A.Gray","PRESERVED_SPECIMEN"
"Sud Carol. White Water Valley. Oconee County.","United States of America",NA,NA,NA,NA,"","","","","2516314408","Shortia galacifolia Torr. & A.Gray","PRESERVED_SPECIMEN"
NA,"United States of America","South Carolina","Oconee",NA,NA,"","","","","1274094370","Shortia galacifolia Torr. & A.Gray","OCCURRENCE"
NA,"United States of America","Unknown",NA,NA,NA,"","","","","1571030658","Shortia galacifolia Torr. & A.Gray","PRESERVED_SPECIMEN"
NA,"United States of America","South Carolina","Oconee",NA,NA,"","","","","1317946574","Shortia galacifolia Torr. & A.Gray","PRESERVED_SPECIMEN"
NA,"United States of America","South Carolina","Oconee",NA,NA,"","","","","1318563129","Shortia galacifolia Torr. & A.Gray","PRESERVED_SPECIMEN"
"Swannanoa River","United States of America","North Carolina","Buncombe",NA,NA,"","","","","3341250354","Sherwoodia galacifolia (Torr. & A.Gray) House","PRESERVED_SPECIMEN"
"Swannanoa River","United States of America","North Carolina","Buncombe",NA,NA,"","","","","3341250354","Sherwoodia galacifolia (Torr. & A.Gray) House","PRESERVED_SPECIMEN"
"White Water Valley","United States of America","South Carolina","Oconee",NA,NA,"","","","","3503198593","Sherwoodia galacifolia (Torr. & A.Gray) House","PRESERVED_SPECIMEN"
